{"type": "FeatureCollection", "features": [{"type": "Feature", "id": 452, "geometry": {"type": "Polygon", "coordinates": [[[-82.43107765568985, 28.03706120081361], [-82.4310847631817, 28.036910748874735], [-82.42904407990068, 28.036914574423257], [-82.4290270826971, 28.03849763151004], [-82.42902498857393, 28.039804600376105], [-82.4273906766544, 28.039815935874152], [-82.42739124518317, 28.039978057954386], [-82.42917531878732, 28.03998292379672], [-82.42917493513409, 28.037061738339414], [-82.43107765568985, 28.03706120081361]]]}, "properties": {"FACILITYID": "162409", "projid": "SW50011", "projname": "Okara & 26th St-Force Main", "projdesc": "Replace the force main system", "rationale": "Flooding Relief", "projtype": "Stormwater", "safety": "No", "mandate": "No", "repair": "No", "replace": "No", "expand": "No", "efficient": "Yes", "fiscalyr": "2023", "fundsource": "Stormwater Improvement Fee", "planstart": 1651363200000, "planend": 1692576000000, "estcost": 90000, "funded": "Yes", "projphase": "P5: Closeout", "actstart": null, "actend": null, "actcost": null, "status": "Closeout", "docpath": null, "CreationDate": 1609359547000, "EditDate": 1743174473000, "MultiYear": "No", "NumVotes": null, "ShowPublic": "Yes", "EBO": null, "JobsCreated": null, "Neighborhood": null, "Council": null, "EBOAttained": null, "ContractNumber": null, "ActivityStatus": null, "ProjectSiteURL": null, "RelatedProject": "No", "MapScale": 6000, "WMBESLBE": null, "ORACLEID": null, "EBUILDERID": null, "COMPROCUREMENT": null, "WATER": null, "WASTEWATER": null, "STORMWATER": null, "TRANSPORTATION": null, "OBJECTID": 452, "GlobalID": "{FF0582EE-6664-4D06-BA5C-8FD9790357B9}", "ProjectNumerical": 50011, "Shape__Area": 117774.12239521634, "Shape__Length": 4601.297394561539}}, {"type": "Feature", "id": 852, "geometry": {"type": "MultiPolygon", "coordinates": [[[[-82.47574854626568, 27.932053893887282], [-82.47571706915467, 27.93315351012256], [-82.47593890122435, 27.933163488678296], [-82.47595401679642, 27.931958412482174], [-82.47595341477874, 27.931874112916837], [-82.47509590025793, 27.931879050121328], [-82.47491709136737, 27.931879684907592], [-82.4749248123506, 27.93087843597472], [-82.47493619299586, 27.930866793495444], [-82.4747829888098, 27.93101056725498], [-82.47477192560228, 27.9318801998734], [-82.47389974013255, 27.93188329055281], [-82.47372565306023, 27.931991857851983], [-82.47372482639706, 27.933113819524984], [-82.47387806033728, 27.933113292324276], [-82.473898232733, 27.932047359919252], [-82.47475651937394, 27.932052530016662], [-82.47478917938176, 27.93205272695025], [-82.47477745686078, 27.933146008591063], [-82.47490649555932, 27.933145563658606], [-82.47492994469086, 27.932053574442875], [-82.4750926350727, 27.932054553711595], [-82.4750926524078, 27.93205363860467], [-82.47574854626568, 27.932053893887282]]], [[[-82.47268359973584, 27.932530543455886], [-82.47267958829954, 27.933112205993435], [-82.47285304716965, 27.933125936325172], [-82.47286686164293, 27.932487314988958], [-82.47268359973584, 27.932530543455886]]], [[[-82.47166102303446, 27.93270928374929], [-82.47164516026213, 27.9339750803059], [-82.47183685563499, 27.933974009426006], [-82.47184627859558, 27.932673873732465], [-82.47166102303446, 27.93270928374929]]], [[[-82.47062573972757, 27.93287927670727], [-82.47061486951749, 27.935249987287047], [-82.47078178658394, 27.935261288890935], [-82.47081273762598, 27.932847888691267], [-82.47062573972757, 27.93287927670727]]]]}, "properties": {"FACILITYID": "162392", "projid": "SW50003", "projname": "Hyde Park Groundwater Diversion ", "projdesc": "Installation of underdrain systems along each side of New Port Ave, Willow Ave, Orleans Ave, and Watrous Ave.  The new underdrain systems will be connected to the existing inlets along Bayshore Blvd.", "rationale": " Groundwater Diversion/Flooding Relief", "projtype": "Stormwater", "safety": "No", "mandate": "No", "repair": "No", "replace": "No", "expand": "No", "efficient": "No", "fiscalyr": "2024", "fundsource": "Stormwater Improvement Fee", "planstart": 1696809600000, "planend": 1759363200000, "estcost": 3000000, "funded": "Yes", "projphase": "P5: Closeout", "actstart": null, "actend": null, "actcost": 0, "status": "Closeout", "docpath": null, "CreationDate": 1609352946000, "EditDate": 1773667740000, "MultiYear": "Yes", "NumVotes": null, "ShowPublic": "Yes", "EBO": null, "JobsCreated": null, "Neighborhood": null, "Council": null, "EBOAttained": null, "ContractNumber": null, "ActivityStatus": null, "ProjectSiteURL": null, "RelatedProject": null, "MapScale": 6000, "WMBESLBE": null, "ORACLEID": null, "EBUILDERID": null, "COMPROCUREMENT": null, "WATER": null, "WASTEWATER": null, "STORMWATER": null, "TRANSPORTATION": null, "OBJECTID": 852, "GlobalID": "{9125A3CE-18B4-438F-B16B-7FA2BF46A30D}", "ProjectNumerical": 50003, "Shape__Area": 215748.58118639814, "Shape__Length": 8088.812561916714}}, {"type": "Feature", "id": 854, "geometry": {"type": "Polygon", "coordinates": [[[-82.4398540218606, 28.04110708138381], [-82.44030332037715, 28.040847509075146], [-82.4404936967674, 28.0406205908334], [-82.4405758505155, 28.040509305794238], [-82.4406576827286, 28.040336628644567], [-82.44071024685765, 28.040160338280156], [-82.44076190599901, 28.039933733779318], [-82.44059846306862, 28.039923650373595], [-82.44054750615585, 28.040086036756296], [-82.44044511307754, 28.04039189033801], [-82.44024630917669, 28.04066720335346], [-82.44003228471718, 28.040841305446143], [-82.4397101366128, 28.04101942342351], [-82.4398540218606, 28.04110708138381]]]}, "properties": {"FACILITYID": "162394", "projid": "SW50019", "projname": "17TH & Annona", "projdesc": "Construction of new inlets and pipes connecting to the existing system", "rationale": "Flooding Relief", "projtype": "Stormwater", "safety": "No", "mandate": "No", "repair": "No", "replace": "No", "expand": "No", "efficient": "Yes", "fiscalyr": "2026", "fundsource": "Stormwater Improvement Fee", "planstart": 1769731200000, "planend": 1785456000000, "estcost": 75000, "funded": "Yes", "projphase": "P2: Design", "actstart": null, "actend": null, "actcost": 0, "status": "60% Design Completion", "docpath": null, "CreationDate": 1609352946000, "EditDate": 1773925114000, "MultiYear": "No", "NumVotes": null, "ShowPublic": "Yes", "EBO": null, "JobsCreated": null, "Neighborhood": null, "Council": null, "EBOAttained": null, "ContractNumber": null, "ActivityStatus": null, "ProjectSiteURL": null, "RelatedProject": null, "MapScale": 6000, "WMBESLBE": null, "ORACLEID": null, "EBUILDERID": null, "COMPROCUREMENT": null, "WATER": null, "WASTEWATER": null, "STORMWATER": null, "TRANSPORTATION": null, "OBJECTID": 854, "GlobalID": "{696361A8-C03B-4171-8504-D473907A9E69}", "ProjectNumerical": 50019, "Shape__Area": 29186.638953822345, "Shape__Length": 1164.0430641517748}}, {"type": "Feature", "id": 856, "geometry": {"type": "Polygon", "coordinates": [[[-82.51778399552336, 27.917164686354752], [-82.51794433026691, 27.917107974377277], [-82.51792410105767, 27.91695225712062], [-82.5180364813677, 27.912443747350718], [-82.51782680656764, 27.912468043393673], [-82.51778399552336, 27.917164686354752]]]}, "properties": {"FACILITYID": "162396", "projid": "SW50004", "projname": "Manhattan: Vasconia to Obispo Flooding Relief-Phase 1", "projdesc": "This project consists of design and construction of a new drainage conveyance system as well as the replacement and upsizing of the existing drainage conveyance system in a residential neighborhood in the City of Tampa. During normal rain events the area experiences street flooding due to an old and undersized drainage system. This project will also consist of new watermain upgrades along the corridor.", "rationale": "Flooding Relief", "projtype": "Stormwater", "safety": "No", "mandate": "No", "repair": "No", "replace": "No", "expand": "No", "efficient": "Yes", "fiscalyr": "2025", "fundsource": "Stormwater Improvement Fee", "planstart": 1753228800000, "planend": 1795996800000, "estcost": 5000000, "funded": "Yes", "projphase": "P4: Construction", "actstart": null, "actend": null, "actcost": 0, "status": "Construction in Progress", "docpath": null, "CreationDate": 1609352946000, "EditDate": 1773667880000, "MultiYear": "No", "NumVotes": null, "ShowPublic": "Yes", "EBO": null, "JobsCreated": null, "Neighborhood": null, "Council": null, "EBOAttained": null, "ContractNumber": null, "ActivityStatus": null, "ProjectSiteURL": null, "RelatedProject": null, "MapScale": 6000, "WMBESLBE": null, "ORACLEID": null, "EBUILDERID": null, "COMPROCUREMENT": null, "WATER": null, "WASTEWATER": null, "STORMWATER": null, "TRANSPORTATION": null, "OBJECTID": 856, "GlobalID": "{5D9C97E5-D363-49E1-A70C-1C9612E7A16D}", "ProjectNumerical": 50004, "Shape__Area": 94967.69007731805, "Shape__Length": 3528.1499826386757}}, {"type": "Feature", "id": 857, "geometry": {"type": "Polygon", "coordinates": [[[-82.4472127390724, 28.04213345508191], [-82.44715872013423, 28.041821069012677], [-82.44686116025296, 28.041845162271446], [-82.44687441610795, 28.042129196795333], [-82.4472127390724, 28.04213345508191]]]}, "properties": {"FACILITYID": "162397", "projid": "SW50007", "projname": "Lantana / Poinsettia Pump Station", "projdesc": "Property acquisition and construction of a new collection system, a new pumping station, and force mains.", "rationale": "Flooding Relief", "projtype": "Stormwater", "safety": "No", "mandate": "No", "repair": "No", "replace": "No", "expand": "No", "efficient": "Yes", "fiscalyr": "2027", "fundsource": "Stormwater Improvement Fee", "planstart": 1767225600000, "planend": 1819756800000, "estcost": 200000, "funded": "Yes", "projphase": "P2: Design", "actstart": null, "actend": null, "actcost": 0, "status": "90% Design Completion", "docpath": null, "CreationDate": 1609352946000, "EditDate": 1773928473000, "MultiYear": "No", "NumVotes": null, "ShowPublic": "Yes", "EBO": null, "JobsCreated": null, "Neighborhood": null, "Council": null, "EBOAttained": null, "ContractNumber": null, "ActivityStatus": null, "ProjectSiteURL": null, "RelatedProject": null, "MapScale": 6000, "WMBESLBE": null, "ORACLEID": null, "EBUILDERID": null, "COMPROCUREMENT": null, "WATER": null, "WASTEWATER": null, "STORMWATER": null, "TRANSPORTATION": null, "OBJECTID": 857, "GlobalID": "{4A19C6BD-8241-4E7E-BF3D-FEE98AE04FAA}", "ProjectNumerical": 50007, "Shape__Area": 11158.6022090374, "Shape__Length": 423.7858710123535}}, {"type": "Feature", "id": 861, "geometry": {"type": "MultiPolygon", "coordinates": [[[[-82.45102451416263, 27.991677861109945], [-82.45102309051987, 27.992052685155535], [-82.45517917356412, 27.9920677769321], [-82.45518140325069, 27.995155977852146], [-82.45536558778684, 27.995149198304905], [-82.45535199744573, 27.99439646745453], [-82.45638765041572, 27.99437143781564], [-82.45956458081595, 27.9943467763182], [-82.45960966764828, 27.993818498613084], [-82.46429527292504, 27.993850770146036], [-82.46523057473952, 27.993887296036668], [-82.46525485043217, 27.9937334998714], [-82.46472062557422, 27.99371130044426], [-82.45933193068048, 27.993693396501797], [-82.45932034212225, 27.99414954480721], [-82.45594657263534, 27.994160772239933], [-82.45537979170298, 27.99418076068646], [-82.45536102346371, 27.991929563269018], [-82.4512151767804, 27.99189537007862], [-82.45121512515003, 27.991548497520505], [-82.45008556472645, 27.99153402175935], [-82.45011015783528, 27.990990229967505], [-82.44920232105632, 27.99098968426076], [-82.44916072816991, 27.985211148228085], [-82.45126562555905, 27.985208392386404], [-82.45126361027252, 27.985096450756338], [-82.44903793902624, 27.98509971278601], [-82.4490511467843, 27.991126085044158], [-82.44997655906472, 27.991099982993966], [-82.44995276921682, 27.991588641356365], [-82.44965699786187, 27.991874618779953], [-82.44796081330026, 27.99187087033006], [-82.44796202530806, 27.992006661562947], [-82.4496960609863, 27.992013390494442], [-82.45017501909085, 27.991672327910724], [-82.45102451416263, 27.991677861109945]]], [[[-82.44699751885034, 27.98794899908407], [-82.44699507002282, 27.98873577328146], [-82.44688254123217, 27.988836040940157], [-82.44687587622929, 27.9920050352896], [-82.4470268823267, 27.9920067978293], [-82.4470353956677, 27.98883669836939], [-82.44711975996195, 27.988744142084965], [-82.44711812572653, 27.987942937224116], [-82.44699751885034, 27.98794899908407]]], [[[-82.45513453327547, 27.996162887457753], [-82.45648121507075, 27.99616956195916], [-82.45648179936653, 27.996025444823648], [-82.45512956240898, 27.996029927102004], [-82.45513453327547, 27.996162887457753]]], [[[-82.44287851159129, 27.99621477434195], [-82.44492204458368, 27.99621940797688], [-82.44507600381425, 27.99594968379156], [-82.44288728520706, 27.995943403941958], [-82.44287851159129, 27.99621477434195]]], [[[-82.45111672415382, 27.99965652931576], [-82.45115735841898, 28.00068520672881], [-82.45136999746323, 28.00067806114725], [-82.45136119066036, 27.999655695445902], [-82.45111672415382, 27.99965652931576]]], [[[-82.45118911208097, 28.003425892563005], [-82.45548482088546, 28.00344588694153], [-82.4554210174534, 27.99782690654707], [-82.45517710422207, 27.997825570970246], [-82.45520463136278, 27.999641283335848], [-82.45411467334924, 27.99964121015124], [-82.45412412741692, 27.999806323744217], [-82.45525374960111, 27.99980573039101], [-82.45530742765956, 28.003308142079995], [-82.45141914306201, 28.003311535420384], [-82.45141504964785, 28.00237087200729], [-82.45117921941956, 28.002363478423796], [-82.45118911208097, 28.003425892563005]]]]}, "properties": {"FACILITYID": "162401", "projid": "SW40003", "projname": "S.E. Seminole Heights Floodings Relief", "projdesc": "Major project elements include approximately 2,834 linear feet of 4’ x 7’ concrete box culvert (CBC), 261 linear feet of 72-inch reinforced concrete pipe (RCP), 3,900 linear feet of 72-inch RCP, 697 linear feet of 60-inch RCP, 51 linear feet of 54-inch RCP, 2,918 linear feet of 48-inch RCP, 632 linear feet of 42-inch RCP, 1,144 linear feet of 36-inch RCP, 2,449 linear feet of 30-inch RCP, 188 linear feet of 24-inch RCP, 222 linear feet of 18-inch RCP, 60 inlets, two nutrient removal baffle type treatment structures, 4,300 linear feet of 8-inch sanitary sewer, 15,774 linear feet of 6-inch water main, 506 linear feet of 8-inch water main, 1,480 linear feet of 20-inch water main, 1,022 linear feet of 24-inch water main, 21 new fire hydrants, 20 water main adjustments to 2-inch through 30-inch water mains, and all associated structures, manholes, removals, meters, and surface restoration.", "rationale": "Flooding Relief/ water quality improvement", "projtype": "Stormwater", "safety": "No", "mandate": "No", "repair": "No", "replace": "No", "expand": "No", "efficient": "Yes", "fiscalyr": "2022", "fundsource": "Stormwater Improvement Fee", "planstart": 1635724800000, "planend": 1798675200000, "estcost": 3000000, "funded": "Yes", "projphase": "P4: Construction", "actstart": null, "actend": null, "actcost": 0, "status": "Construction in Progress", "docpath": null, "CreationDate": 1609352946000, "EditDate": 1773667907000, "MultiYear": "Yes", "NumVotes": null, "ShowPublic": "Yes", "EBO": null, "JobsCreated": null, "Neighborhood": null, "Council": null, "EBOAttained": null, "ContractNumber": null, "ActivityStatus": null, "ProjectSiteURL": null, "RelatedProject": null, "MapScale": 6000, "WMBESLBE": null, "ORACLEID": null, "EBUILDERID": null, "COMPROCUREMENT": null, "WATER": null, "WASTEWATER": null, "STORMWATER": null, "TRANSPORTATION": null, "OBJECTID": 861, "GlobalID": "{DB60F118-B03A-4CB8-B1D0-743071B029EC}", "ProjectNumerical": 40003, "Shape__Area": 983070.914012859, "Shape__Length": 35601.81849764087}}, {"type": "Feature", "id": 862, "geometry": {"type": "MultiPolygon", "coordinates": [[[[-82.51891482342545, 27.91749238824509], [-82.5197741339397, 27.917503751615165], [-82.52035209267909, 27.91750863748009], [-82.52101456918284, 27.917509597972884], [-82.5218177388139, 27.917516637112634], [-82.52302324810245, 27.917527181015465], [-82.52362678865997, 27.917532465875613], [-82.52382479795715, 27.917534112627205], [-82.52390329306913, 27.917553129352676], [-82.52393513921331, 27.917579509357036], [-82.52413047076656, 27.917921023912236], [-82.52415031753912, 27.917969635299933], [-82.52436562702684, 27.91854225049359], [-82.52444039681788, 27.918513528184754], [-82.52418678253201, 27.917950360018942], [-82.52414976488537, 27.917864297117713], [-82.52412124751874, 27.917803520822087], [-82.52400587234854, 27.917547230893014], [-82.52394581498456, 27.917495729484983], [-82.5238684376386, 27.917467905508985], [-82.52367601922239, 27.917463763154316], [-82.52305236312196, 27.91745810818749], [-82.52255231108856, 27.91745360233845], [-82.52192441948876, 27.917447906891933], [-82.5213209049594, 27.917442445717995], [-82.52101590635003, 27.917439700227973], [-82.52031816394673, 27.917439423408794], [-82.51977476256258, 27.917434655182213], [-82.51961896047956, 27.9174312551701], [-82.51925783022097, 27.91742846391604], [-82.5189158678524, 27.917425792632528], [-82.51891482342545, 27.91749238824509]]], [[[-82.51832313241094, 27.918412729516774], [-82.5183113272955, 27.91918245714636], [-82.51835675634634, 27.919171071040388], [-82.51837209959542, 27.918233263118037], [-82.51838430360887, 27.917487620158283], [-82.51875596358859, 27.91749095159439], [-82.51875699472369, 27.9174215504336], [-82.51838547353739, 27.91741659684146], [-82.51839130932186, 27.917060706931657], [-82.51839888721105, 27.916960625295374], [-82.51833638887967, 27.9169599057057], [-82.51832313241094, 27.918412729516774]]]]}, "properties": {"FACILITYID": "162402", "projid": "SW50006", "projname": "Lamb Canal Rehabilitation & Flood Relief", "projdesc": "The Lamb Canal has experienced significant erosion over the years and is in need of rehabilitation. Embankment deterioration has reduced the canal’s capacity and increased the risk of further erosion.This project will remove accumulated sediment and stabilize the canal banks in targeted areas to prevent future erosion and help restore capacity. A future phase may include replacing and upsizing the drainage pipes at W. Bay to Bay Boulevard and S. Manhattan Avenue to help alleviate frequent nuisance flooding at the intersection.", "rationale": " Flooding Relief", "projtype": "Stormwater", "safety": "No", "mandate": "No", "repair": "No", "replace": "No", "expand": "No", "efficient": "Yes", "fiscalyr": "On Hold", "fundsource": "Stormwater Improvement Fee", "planstart": null, "planend": null, "estcost": 25000, "funded": "Yes", "projphase": null, "actstart": null, "actend": null, "actcost": 0, "status": null, "docpath": null, "CreationDate": 1609352946000, "EditDate": 1773928386000, "MultiYear": "No", "NumVotes": null, "ShowPublic": "Yes", "EBO": null, "JobsCreated": null, "Neighborhood": null, "Council": null, "EBOAttained": null, "ContractNumber": null, "ActivityStatus": null, "ProjectSiteURL": null, "RelatedProject": null, "MapScale": 6000, "WMBESLBE": null, "ORACLEID": null, "EBUILDERID": null, "COMPROCUREMENT": null, "WATER": null, "WASTEWATER": null, "STORMWATER": null, "TRANSPORTATION": null, "OBJECTID": 862, "GlobalID": "{8CD02B8B-A18D-43A2-BCF4-C401960C4016}", "ProjectNumerical": 50006, "Shape__Area": 64565.88688614849, "Shape__Length": 5972.648492046782}}, {"type": "Feature", "id": 869, "geometry": {"type": "Polygon", "coordinates": [[[-82.51244805077735, 27.901485239589842], [-82.5124423864859, 27.901485162288456], [-82.5124613367852, 27.900496417304904], [-82.51226729282132, 27.900520931759797], [-82.51225534863237, 27.9014833805012], [-82.51244805077735, 27.901485239589842]]]}, "properties": {"FACILITYID": "162412", "projid": "SW60001", "projname": "Clark & Fair Oaks", "projdesc": "Replacing the failed pipes and construction of new pipes and inlets ", "rationale": "Flooding Relief", "projtype": "Stormwater", "safety": "No", "mandate": "No", "repair": "No", "replace": "No", "expand": "No", "efficient": "Yes", "fiscalyr": "2027", "fundsource": "Stormwater Improvement Fee", "planstart": 1785369600000, "planend": 1848614400000, "estcost": 95000, "funded": "Yes", "projphase": "P2: Design", "actstart": null, "actend": null, "actcost": null, "status": "90% Design Completion", "docpath": null, "CreationDate": 1609360473000, "EditDate": 1773925226000, "MultiYear": "No", "NumVotes": null, "ShowPublic": "Yes", "EBO": null, "JobsCreated": null, "Neighborhood": null, "Council": null, "EBOAttained": null, "ContractNumber": null, "ActivityStatus": null, "ProjectSiteURL": null, "RelatedProject": "No", "MapScale": 6000, "WMBESLBE": null, "ORACLEID": null, "EBUILDERID": null, "COMPROCUREMENT": null, "WATER": null, "WASTEWATER": null, "STORMWATER": null, "TRANSPORTATION": null, "OBJECTID": 869, "GlobalID": "{2FB022E6-3F7E-452E-8F81-0DD4CD27C1FE}", "ProjectNumerical": 60001, "Shape__Area": 21808.725222696685, "Shape__Length": 836.8396079161296}}, {"type": "Feature", "id": 871, "geometry": {"type": "Polygon", "coordinates": [[[-82.43888675908909, 28.039009310692023], [-82.43904540536084, 28.038994922094616], [-82.43924600068554, 28.038996134371313], [-82.43939443083588, 28.039015125397814], [-82.43957225212878, 28.039134196951707], [-82.43973829309539, 28.038679224055407], [-82.4399037782789, 28.038735291974646], [-82.44011152159496, 28.038840358292102], [-82.44017038202209, 28.038863343383795], [-82.44024374995864, 28.03884138295181], [-82.440269579868, 28.03877032987155], [-82.44032178485699, 28.03836172190203], [-82.44032143693443, 28.038276269161692], [-82.44030963304974, 28.038183610461022], [-82.44028637324229, 28.038083747601142], [-82.4402251539281, 28.037934154087413], [-82.44018261102404, 28.037831064644408], [-82.44009938425991, 28.037689776000466], [-82.44004251098634, 28.03762259567971], [-82.43993136028205, 28.03753351911415], [-82.43976831651283, 28.03745236021923], [-82.43966202968464, 28.037420062342342], [-82.43966204104468, 28.037511670558665], [-82.4396606807816, 28.03769118434609], [-82.43926550142206, 28.037692451224927], [-82.4392252083166, 28.037832548038384], [-82.43927535072186, 28.03789281165213], [-82.43936980462675, 28.03791287770819], [-82.43943149640752, 28.038030360832227], [-82.43943207571492, 28.038172933087605], [-82.4393434769286, 28.03833842101245], [-82.43922117685388, 28.03837049542827], [-82.43897899147473, 28.038400689658452], [-82.43888492192598, 28.038475672116647], [-82.43888675908909, 28.039009310692023]]]}, "properties": {"FACILITYID": "162414", "projid": "SW50021", "projname": "NTCB Elmer-Pond Expansion", "projdesc": "Property acquisition and pond expansion", "rationale": "Flooding Relief/ water quality improvement", "projtype": "Stormwater", "safety": "No", "mandate": "No", "repair": "No", "replace": "No", "expand": "No", "efficient": "Yes", "fiscalyr": "2027", "fundsource": "Stormwater Improvement Fee", "planstart": 1801440000000, "planend": 1846022400000, "estcost": 90000, "funded": "Yes", "projphase": "P2: Design", "actstart": null, "actend": null, "actcost": null, "status": "30% Design Completion", "docpath": null, "CreationDate": 1609360827000, "EditDate": 1773929274000, "MultiYear": "No", "NumVotes": null, "ShowPublic": "Yes", "EBO": null, "JobsCreated": null, "Neighborhood": null, "Council": null, "EBOAttained": null, "ContractNumber": null, "ActivityStatus": null, "ProjectSiteURL": null, "RelatedProject": "No", "MapScale": 6000, "WMBESLBE": null, "ORACLEID": null, "EBUILDERID": null, "COMPROCUREMENT": null, "WATER": null, "WASTEWATER": null, "STORMWATER": null, "TRANSPORTATION": null, "OBJECTID": 871, "GlobalID": "{9ADBB319-1AE9-42EE-A285-00F8A0BC79C5}", "ProjectNumerical": 50021, "Shape__Area": 168385.08373819187, "Shape__Length": 2057.699810223843}}, {"type": "Feature", "id": 872, "geometry": {"type": "MultiPolygon", "coordinates": [[[[-82.50212016622203, 27.887602595315087], [-82.50210776407064, 27.88852849507793], [-82.5021530566497, 27.888529755021533], [-82.50215266023172, 27.888570849826184], [-82.5022474658988, 27.88858271055117], [-82.50224809338467, 27.88752340064593], [-82.50224813682641, 27.887518948864205], [-82.50275272698356, 27.887525588755008], [-82.50272436832269, 27.887408617095144], [-82.50224924624229, 27.887403915521496], [-82.5022780132536, 27.884423504541395], [-82.50228225343687, 27.88167921715141], [-82.5023012494753, 27.87810698470016], [-82.50160406466206, 27.877297846867155], [-82.50012700528114, 27.87512567103702], [-82.49970366839815, 27.874215121849527], [-82.49958035786415, 27.87427764782468], [-82.50021544463218, 27.875563485431083], [-82.50122223220923, 27.876992503240494], [-82.50193066920038, 27.87793219740472], [-82.50217623132954, 27.878172008981682], [-82.50217634306043, 27.878306768502647], [-82.50218192503644, 27.879516989344893], [-82.50219020893746, 27.88007224680269], [-82.50217199408026, 27.880948625085356], [-82.50025350091062, 27.88097802584005], [-82.50026688357534, 27.880009192602984], [-82.50007856632624, 27.880011361094354], [-82.50006377108681, 27.881143529003616], [-82.50006590180469, 27.88114353571469], [-82.50005600722433, 27.882105355183178], [-82.5002498877556, 27.882034081899178], [-82.50025120619125, 27.881144114285156], [-82.50216931712255, 27.881101887056985], [-82.50215291177363, 27.882771297024586], [-82.50214740863078, 27.88396444221258], [-82.50213129529565, 27.885243199373903], [-82.50213403687354, 27.886433869462625], [-82.50212253957143, 27.887402660676784], [-82.50155865276194, 27.88739707797534], [-82.50164692813755, 27.887511034382946], [-82.50212117926657, 27.887517277114437], [-82.50212016622203, 27.887602595315087]]], [[[-82.49072392671984, 27.875159416470254], [-82.49176367106472, 27.875185960809404], [-82.4925927574982, 27.87513937157723], [-82.49300758317504, 27.875021178366204], [-82.49395413962856, 27.875015836482465], [-82.49566109073317, 27.87496908844799], [-82.49567096839847, 27.87477804057284], [-82.49412673839433, 27.87478339563285], [-82.49297000010594, 27.874883316548416], [-82.4929479882395, 27.873686145332822], [-82.49282333970932, 27.873630579454062], [-82.49277349839946, 27.874929733622217], [-82.49208705867336, 27.875054427452238], [-82.4910556076027, 27.87502727755793], [-82.49012364938237, 27.874871643532675], [-82.48951733081424, 27.87461436590496], [-82.4896485884504, 27.87436381594145], [-82.48967022202112, 27.87385386111515], [-82.48970976066559, 27.873483875674847], [-82.48959522829709, 27.873521789610646], [-82.48949811561265, 27.874291404837084], [-82.48936700523547, 27.874622690025472], [-82.4881743389321, 27.874040109643353], [-82.48750536171609, 27.873730536634334], [-82.48743042876585, 27.873824388777173], [-82.48810077425817, 27.874166815310513], [-82.48878306820532, 27.87445601116617], [-82.48985868668494, 27.874937858810405], [-82.49072392671984, 27.875159416470254]]]]}, "properties": {"FACILITYID": "162415", "projid": "SW40004", "projname": "Lower Peninsula, S.E. Region Flooding Relief", "projdesc": "Construction of over 10,000 linear feet of box culvert, pipes, laterals, inlets, interconnections through a regional pond and a proposed outfall to Old Tampa Bay, along with associated utility construction and/ or relocation.", "rationale": "Flooding Relief/ water quality improvement", "projtype": "Stormwater", "safety": "No", "mandate": "No", "repair": "No", "replace": "No", "expand": "No", "efficient": "Yes", "fiscalyr": "2023", "fundsource": "Stormwater Improvement Fee", "planstart": 1667260800000, "planend": 1790726400000, "estcost": 51500000, "funded": "Yes", "projphase": "P4: Construction", "actstart": null, "actend": null, "actcost": null, "status": "Construction in Progress", "docpath": null, "CreationDate": 1609361323000, "EditDate": 1773668086000, "MultiYear": "Yes", "NumVotes": null, "ShowPublic": "Yes", "EBO": null, "JobsCreated": null, "Neighborhood": null, "Council": null, "EBOAttained": null, "ContractNumber": null, "ActivityStatus": null, "ProjectSiteURL": null, "RelatedProject": "No", "MapScale": 6000, "WMBESLBE": null, "ORACLEID": null, "EBUILDERID": null, "COMPROCUREMENT": null, "WATER": null, "WASTEWATER": null, "STORMWATER": null, "TRANSPORTATION": null, "OBJECTID": 872, "GlobalID": "{3F9064EA-0BEB-4E42-BE38-78AB3295A011}", "ProjectNumerical": 40004, "Shape__Area": 525493.3920404505, "Shape__Length": 21748.930536768195}}, {"type": "Feature", "id": 945, "geometry": {"type": "MultiPolygon", "coordinates": [[[[-82.43552702618587, 28.039765882249796], [-82.43571540415499, 28.039767672627455], [-82.43585786162546, 28.039726630654094], [-82.43585788087286, 28.0397314061048], [-82.43591150804097, 28.039683483530855], [-82.4359269512349, 28.039509139171322], [-82.43590154834149, 28.039215543841554], [-82.43586085737394, 28.039134493760287], [-82.43568323435726, 28.039130282609676], [-82.43552983143066, 28.039125993540278], [-82.43524730029743, 28.03913166451461], [-82.43513161703187, 28.03913919336297], [-82.43494868961764, 28.039154098309382], [-82.4348951209034, 28.039216345962387], [-82.43489274663449, 28.03929514492216], [-82.43484480866717, 28.039419451877684], [-82.43514088167217, 28.03943522773271], [-82.4352997537788, 28.039460987902128], [-82.43535127626097, 28.039558717211367], [-82.43542174149877, 28.039682649066048], [-82.43552702618587, 28.039765882249796]]], [[[-82.4355067532055, 28.03826022981367], [-82.43542196020393, 28.03826049950269], [-82.4354222850207, 28.038341175042547], [-82.43542250131404, 28.038394896169493], [-82.43540920302631, 28.038433737105194], [-82.43542623718791, 28.038487404023275], [-82.43542982887371, 28.038544098694427], [-82.43543679697194, 28.03860376690695], [-82.4354066557128, 28.038636691837354], [-82.43540690804555, 28.038699365580477], [-82.43543063398099, 28.03874405855315], [-82.43543079019723, 28.038782856841745], [-82.43537379986788, 28.038830788988886], [-82.43536048949758, 28.03886664571212], [-82.43539084711249, 28.038887441012996], [-82.43550935858609, 28.038907956861912], [-82.43557929807942, 28.038907735115593], [-82.43566435805747, 28.038907465381104], [-82.43575757274284, 28.038907169726652], [-82.43585035619752, 28.038906875377165], [-82.43584986174193, 28.038783937281416], [-82.43584774978449, 28.03825914655025], [-82.4355067532055, 28.03826022981367]]]]}, "properties": {"FACILITYID": "162613", "projid": "SW50020", "projname": "NTCB 99TH Ave-Pond Expansion", "projdesc": "Property acquisition and pond expansion\r\n", "rationale": "Flooding Relief/ water quality improvement", "projtype": "Stormwater", "safety": "No", "mandate": "No", "repair": "No", "replace": "No", "expand": "No", "efficient": "Yes", "fiscalyr": "2024", "fundsource": "Stormwater Improvement Fee", "planstart": 1713139200000, "planend": 1722988800000, "estcost": 100000, "funded": "Yes", "projphase": "P5: Closeout", "actstart": null, "actend": null, "actcost": null, "status": "Closeout", "docpath": null, "CreationDate": 1613656617000, "EditDate": 1743177159000, "MultiYear": "No", "NumVotes": null, "ShowPublic": "Yes", "EBO": null, "JobsCreated": null, "Neighborhood": null, "Council": null, "EBOAttained": null, "ContractNumber": null, "ActivityStatus": null, "ProjectSiteURL": null, "RelatedProject": "No", "MapScale": 6000, "WMBESLBE": null, "ORACLEID": null, "EBUILDERID": null, "COMPROCUREMENT": null, "WATER": null, "WASTEWATER": null, "STORMWATER": null, "TRANSPORTATION": null, "OBJECTID": 945, "GlobalID": "{4596DB44-74BC-4B0C-9045-D75CF1033592}", "ProjectNumerical": 50020, "Shape__Area": 88671.5088042353, "Shape__Length": 1790.6426833265205}}, {"type": "Feature", "id": 1750, "geometry": {"type": "Polygon", "coordinates": [[[-82.50157879114059, 27.936595609626963], [-82.5016683997744, 27.936598461488174], [-82.50165262867327, 27.93596966316113], [-82.5016722454866, 27.934427532961205], [-82.50170163139845, 27.93311856613051], [-82.50170403875963, 27.932055814692163], [-82.50367407581226, 27.932092623463546], [-82.50581276620007, 27.932105703733104], [-82.50581310574997, 27.932019985171753], [-82.50377984590416, 27.932008426953644], [-82.5016918661944, 27.931974143885437], [-82.50168305646996, 27.93159912479084], [-82.50150992485821, 27.931400705974195], [-82.50072414144135, 27.931897085014366], [-82.50075273927847, 27.931931465782586], [-82.50150781813143, 27.931455190418887], [-82.5016406804257, 27.9316181359418], [-82.50163537326979, 27.932001588057783], [-82.50160808561783, 27.933755418092776], [-82.50159633347513, 27.935297569425995], [-82.50157879114059, 27.936595609626963]]]}, "properties": {"FACILITYID": "168232", "projid": "SW40006", "projname": "Golfview Flooding Relief", "projdesc": "During high intensity and short duration rain events, low-lying areas in Golfview Neighborhood experience frequent and dangerous flooding due to an old and undersized drainage system. It often takes days to drain some of the flooded streets and vehicles are stranded in these flooded streets. This project consists of design and construction of a new drainage conveyance system as well as the replacement and upsizing of the existing drainage conveyance system in a highly urbanized residential neighborhood. Following the completion of Florida Department of Transportation’s drainage project on South Dale Mabry Highway between Henderson Boulevard and West Neptune Street, this project was proposed. The upsized drainage system will connect to the City’s recently completed Dale Mabry-Henderson Trunkline project at West Watrous Avenue and South Dale Mabry Highway. There will be opportunities to implement Green Infrastructure technologies and improve water quality with this project.", "rationale": "Flooding Relief/ water quality improvement", "projtype": "Stormwater", "safety": "No", "mandate": "No", "repair": "No", "replace": "No", "expand": "No", "efficient": "Yes", "fiscalyr": "2027", "fundsource": "Stormwater Improvement Fee", "planstart": 1796083200000, "planend": 1846022400000, "estcost": 8000000, "funded": "Yes", "projphase": "P2: Design", "actstart": null, "actend": null, "actcost": null, "status": null, "docpath": null, "CreationDate": 1626179491000, "EditDate": 1769193470000, "MultiYear": "Yes", "NumVotes": null, "ShowPublic": "Yes", "EBO": null, "JobsCreated": null, "Neighborhood": null, "Council": null, "EBOAttained": null, "ContractNumber": null, "ActivityStatus": null, "ProjectSiteURL": null, "RelatedProject": "No", "MapScale": 6000, "WMBESLBE": null, "ORACLEID": null, "EBUILDERID": null, "COMPROCUREMENT": null, "WATER": null, "WASTEWATER": null, "STORMWATER": null, "TRANSPORTATION": null, "OBJECTID": 1750, "GlobalID": "{8765BDD3-2C6F-4505-AC7B-12AC7BC49D50}", "ProjectNumerical": 40006, "Shape__Area": 88651.06095332206, "Shape__Length": 7106.1109210869035}}, {"type": "Feature", "id": 1751, "geometry": {"type": "MultiPolygon", "coordinates": [[[[-82.4868018393705, 27.936872819085583], [-82.48709749067571, 27.936881925710214], [-82.48709767315002, 27.937353535393708], [-82.48715955446855, 27.9373602027847], [-82.48716642835888, 27.93694472973907], [-82.48715983342018, 27.9368229834251], [-82.48683703119895, 27.93683318347015], [-82.48649825647378, 27.936586066807823], [-82.48579201438771, 27.936960169765893], [-82.48561244139063, 27.936629920286123], [-82.48561262440539, 27.936093608968314], [-82.48562037099038, 27.935247480974688], [-82.4856213297093, 27.93512124366944], [-82.48308661342301, 27.93510868430225], [-82.48308810299483, 27.93468785801253], [-82.48309137215679, 27.933911863873963], [-82.48309402838858, 27.933754727390035], [-82.48315587802631, 27.9318504738575], [-82.48320297262713, 27.93023644968214], [-82.48326182862033, 27.927929120234914], [-82.4832640561914, 27.926616865320746], [-82.48302186359099, 27.926196535945067], [-82.4824095402651, 27.925237417395152], [-82.4823629129445, 27.925270529621475], [-82.48315076568949, 27.92652987576118], [-82.4831969750926, 27.92662502295781], [-82.48320068936832, 27.92792790261481], [-82.48307314981903, 27.931833114680593], [-82.48301161320938, 27.933753706177267], [-82.48300926643608, 27.93465591572306], [-82.48197831823882, 27.934653544005698], [-82.4819850639657, 27.93472291772103], [-82.48300984802935, 27.934726382166275], [-82.4829966071529, 27.93512093803584], [-82.48099642663185, 27.935118388781248], [-82.48098921138059, 27.935185843148204], [-82.48300708008763, 27.935195001990447], [-82.48300386149702, 27.936037546007636], [-82.4830840239591, 27.93603748409554], [-82.48308827187613, 27.93517749554771], [-82.48555619333933, 27.935174613702355], [-82.48556341701106, 27.93536447379556], [-82.48556052682835, 27.936104209223462], [-82.48555870108417, 27.936658146831384], [-82.4857590878427, 27.937028840351047], [-82.48648995274455, 27.936652950427945], [-82.4868018393705, 27.936872819085583]]], [[[-82.48714076758482, 27.937367431690795], [-82.48714613402532, 27.937365024924205], [-82.4871407546651, 27.937364551238172], [-82.48714076758482, 27.937367431690795]]]]}, "properties": {"FACILITYID": "168233", "projid": "SW40007", "projname": "South Howard Flood Relief Project", "projdesc": "Design and construction of a new stormwater system to alleviate frequent and dangerous flooding", "rationale": "Flooding Relief/ water quality improvement", "projtype": "Stormwater", "safety": "No", "mandate": "No", "repair": "No", "replace": "No", "expand": "No", "efficient": "No", "fiscalyr": "2027", "fundsource": "Stormwater Improvement Fee", "planstart": 1798675200000, "planend": null, "estcost": 65000000, "funded": "Yes", "projphase": "P2: Design", "actstart": null, "actend": null, "actcost": null, "status": "Planning", "docpath": null, "CreationDate": 1626180673000, "EditDate": 1773929503000, "MultiYear": "Yes", "NumVotes": null, "ShowPublic": "Yes", "EBO": null, "JobsCreated": null, "Neighborhood": null, "Council": null, "EBOAttained": null, "ContractNumber": null, "ActivityStatus": null, "ProjectSiteURL": null, "RelatedProject": "No", "MapScale": 6000, "WMBESLBE": null, "ORACLEID": null, "EBUILDERID": null, "COMPROCUREMENT": null, "WATER": null, "WASTEWATER": null, "STORMWATER": null, "TRANSPORTATION": null, "OBJECTID": 1751, "GlobalID": "{160EB831-31B7-4BEE-88D8-398FC3AD5AB2}", "ProjectNumerical": 40007, "Shape__Area": 164440.42730516984, "Shape__Length": 14347.403280093966}}, {"type": "Feature", "id": 3383, "geometry": {"type": "Polygon", "coordinates": [[[-82.45647950078452, 27.954269498115234], [-82.45647641212622, 27.95425008605592], [-82.45647006453824, 27.95423148293834], [-82.45646064325626, 27.954214231639757], [-82.45644842321268, 27.95419883558858], [-82.45643376101353, 27.954185744073275], [-82.45641708453196, 27.954175339131204], [-82.45639888042204, 27.954167924399997], [-82.45637967991716, 27.954163716256776], [-82.45636004332759, 27.954162837503823], [-82.45599848026029, 27.954161890752143], [-82.45601481815248, 27.954466498980903], [-82.45608680910962, 27.954464921277033], [-82.45643098791501, 27.954466362203014], [-82.45647516417803, 27.954468792994497], [-82.45647588623066, 27.95440874772977], [-82.45649227269504, 27.954408541780488], [-82.4564924790891, 27.95439140880828], [-82.45647731840644, 27.954391169413096], [-82.45647950078452, 27.954269498115234]]]}, "properties": {"FACILITYID": "171661", "projid": "PR-19003", "projname": "Kid Mason Community Center Renovations", "projdesc": "This project provides for a complete renovation of the Kid Mason Center to improve and increase available recreational services as well as overall accessibility.", "rationale": "Park & Facility Improvements", "projtype": "Parks and Recreation", "safety": "No", "mandate": "No", "repair": "No", "replace": "No", "expand": "No", "efficient": "No", "fiscalyr": "2023", "fundsource": "Community Redevelopment Agency", "planstart": 1690430400000, "planend": 1724644800000, "estcost": 2623356, "funded": "Yes", "projphase": "P4: Construction", "actstart": null, "actend": null, "actcost": 0, "status": "Construction in Progress", "docpath": null, "CreationDate": 1649259967000, "EditDate": 1720472144000, "MultiYear": "Yes", "NumVotes": null, "ShowPublic": "Yes", "EBO": 21, "JobsCreated": 3, "Neighborhood": "Tampa Downtown Partnership", "Council": "5", "EBOAttained": 28.46, "ContractNumber": "20-C-00023", "ActivityStatus": "C2.1-Construction", "ProjectSiteURL": "<a href=\"https://apps.tampagov.net/Directory_Lister/FileHandler.ashx?file=GIS%2f1001785.pdf\">1001785</a>", "RelatedProject": "No", "MapScale": 6000, "WMBESLBE": 25, "ORACLEID": null, "EBUILDERID": null, "COMPROCUREMENT": null, "WATER": null, "WASTEWATER": null, "STORMWATER": null, "TRANSPORTATION": null, "OBJECTID": 3383, "GlobalID": "{5DD270CC-EA39-4665-BA30-F9ECE39E576F}", "ProjectNumerical": 64510, "Shape__Area": 16485.30942238465, "Shape__Length": 519.1973821506735}}, {"type": "Feature", "id": 3386, "geometry": {"type": "Polygon", "coordinates": [[[-82.53974372783769, 27.893686404221693], [-82.5416706713702, 27.893707497006332], [-82.541740608546, 27.893686803452095], [-82.54180835228107, 27.89365978090407], [-82.5418733311833, 27.893626657286973], [-82.54193499718083, 27.89358771198567], [-82.54199283014488, 27.89354327348868], [-82.5420463422768, 27.893493716617503], [-82.54209508222253, 27.89343945936513], [-82.5421386388795, 27.89338095937045], [-82.54217664486423, 27.893318710058242], [-82.54220533955422, 27.893126316707257], [-82.54222754735521, 27.892933067126894], [-82.54224324313998, 27.892739179971368], [-82.54225240914934, 27.8925448746163], [-82.54225503501235, 27.89235037091047], [-82.54225111775791, 27.892155888927107], [-82.54224066181827, 27.891961648714837], [-82.54222367902389, 27.891767870048746], [-82.54220018859016, 27.891574772181695], [-82.54217021709553, 27.891382573596253], [-82.54213379845157, 27.89119149175748], [-82.54218333461613, 27.89116958621983], [-82.54222969582854, 27.891141580467497], [-82.54227213471519, 27.89110792597183], [-82.54230996713301, 27.891069165265687], [-82.54234258319825, 27.891025923197432], [-82.54234914296428, 27.890979213996868], [-82.5423614702152, 27.890933685776687], [-82.54237937291165, 27.890890047795438], [-82.54240257215761, 27.89084897986471], [-82.54243070654508, 27.890811121758706], [-82.54246333778423, 27.890777063247587], [-82.54249995753132, 27.89074733490975], [-82.5425399953079, 27.890722399866267], [-82.54258282738797, 27.89070264656616], [-82.54241142506314, 27.89028070916733], [-82.54234963953546, 27.890270159801553], [-82.542288900368, 27.89025468420502], [-82.54222959967232, 27.890234382282937], [-82.5421721202736, 27.89020938509764], [-82.5421168332394, 27.890179854022506], [-82.54206409548411, 27.890145979700147], [-82.54201220788846, 27.89008802936169], [-82.54195546234993, 27.890034826841397], [-82.54189429160795, 27.889986777859782], [-82.5418291621484, 27.889944248836656], [-82.5417605706462, 27.889907564096827], [-82.54168904017772, 27.8898770033968], [-82.54161511623171, 27.88985279979138], [-82.54153936254954, 27.889835137856398], [-82.54146235682609, 27.889824152281133], [-82.54138468630423, 27.889819926841184], [-82.54130694329656, 27.889822493759613], [-82.54122972066851, 27.889831833461187], [-82.54115360731706, 27.88984787472168], [-82.54107918367987, 27.88987049521101], [-82.53653095786328, 27.891227738694454], [-82.53684150878578, 27.892078918060516], [-82.54171890609618, 27.89044101627603], [-82.54186615607897, 27.890870212850217], [-82.53966885930426, 27.891595125152648], [-82.53972586053081, 27.891709508496774], [-82.53929975795296, 27.89194755259186], [-82.53961807523754, 27.892734228382928], [-82.53940867940865, 27.89277802538627], [-82.53974372783769, 27.893686404221693]]]}, "properties": {"FACILITYID": "171664", "projid": "P&R22013", "projname": "Gandy Park South and A. J. Palonis Park Improvements", "projdesc": "This project provides for the design and construction of improvements to Gandy Park South and A. J. Palonis Park.  Improvements include but are not limited to a trail connection under the Gandy Bridge, passive recreational opportunities including fishing, picnicking, walking, kayak launching, as well as other passive recreational activities.  Improved parking, restrooms, shelters and boardwalks are key components of the improvement project.   The intent is to utilize a design/build process advertised through an RFQ.", "rationale": "Both Gandy Park South and Lt. Col. A. J. Palonis Park are in need of renovations and additional improvements.", "projtype": "Parks and Recreation", "safety": "No", "mandate": "No", "repair": "No", "replace": "No", "expand": "No", "efficient": "No", "fiscalyr": "2024", "fundsource": "Other Agencies", "planstart": null, "planend": null, "estcost": 2000000, "funded": "Yes", "projphase": "P2: Design", "actstart": null, "actend": null, "actcost": 0, "status": "Planning", "docpath": null, "CreationDate": 1649261734000, "EditDate": 1720472144000, "MultiYear": "Yes", "NumVotes": null, "ShowPublic": "Yes", "EBO": null, "JobsCreated": 15, "Neighborhood": "Gandy / Sun Bay South", "Council": "4", "EBOAttained": null, "ContractNumber": "22-C-00025", "ActivityStatus": null, "ProjectSiteURL": "<a href=\"https://apps.tampagov.net/Directory_Lister/FileHandler.ashx?file=GIS%2f1002293.pdf\">1002293</a>", "RelatedProject": "No", "MapScale": 6000, "WMBESLBE": 12, "ORACLEID": null, "EBUILDERID": null, "COMPROCUREMENT": null, "WATER": null, "WASTEWATER": null, "STORMWATER": null, "TRANSPORTATION": null, "OBJECTID": 3386, "GlobalID": "{6DFEF3CE-513C-46CA-984D-8D885DEBA083}", "ProjectNumerical": 59708, "Shape__Area": 1345215.3274078732, "Shape__Length": 7917.17457244295}}, {"type": "Feature", "id": 3388, "geometry": {"type": "Polygon", "coordinates": [[[-82.46005657431918, 27.952153736853898], [-82.46004458233942, 27.952158683751446], [-82.4600336093295, 27.95216560274176], [-82.46002397659409, 27.95217429122738], [-82.46001596619281, 27.9521844947976], [-82.46000981268114, 27.952195914677983], [-82.46000569624228, 27.952208216478866], [-82.46000373741117, 27.952221039986757], [-82.46000399354506, 27.95223400971186], [-82.46000645714399, 27.952246745882956], [-82.46001105607044, 27.95225887556759], [-82.46010610140601, 27.95260306533597], [-82.46016855186672, 27.952746114441084], [-82.4605968206979, 27.952623414163252], [-82.46036326502075, 27.95207742688897], [-82.46016853199308, 27.9521390575934], [-82.46013217852524, 27.952126286360365], [-82.46005657431918, 27.952153736853898]]]}, "properties": {"FACILITYID": "171666", "projid": "PR-22017", "projname": "Herman Massey Park Rehabilitation", "projdesc": "A complete renovation of the park based on changing demographics and public input.", "rationale": "Built in 1988, current materials are worn and outdated, in need of replacement.", "projtype": "Parks and Recreation", "safety": "No", "mandate": "No", "repair": "No", "replace": "No", "expand": "No", "efficient": "No", "fiscalyr": "2025", "fundsource": "Community Redevelopment Agency", "planstart": 1730433600000, "planend": 1761969600000, "estcost": 2000000, "funded": "Yes", "projphase": "P3: Procurement", "actstart": null, "actend": null, "actcost": 0, "status": "Contract Negotiations", "docpath": "https://www.tampa.gov/project/pr-22017", "CreationDate": 1649262706000, "EditDate": 1720472144000, "MultiYear": "No", "NumVotes": null, "ShowPublic": "Yes", "EBO": null, "JobsCreated": null, "Neighborhood": "Downtown River Arts", "Council": "5", "EBOAttained": null, "ContractNumber": "20-D-62404", "ActivityStatus": null, "ProjectSiteURL": "<a href=\"https://apps.tampagov.net/Directory_Lister/FileHandler.ashx?file=GIS%2f1001365.pdf\">1001365</a>", "RelatedProject": "No", "MapScale": 6000, "WMBESLBE": null, "ORACLEID": null, "EBUILDERID": null, "COMPROCUREMENT": null, "WATER": null, "WASTEWATER": null, "STORMWATER": null, "TRANSPORTATION": null, "OBJECTID": 3388, "GlobalID": "{2AD7A83D-196D-47E8-ABED-0E44BB8EFFF4}", "ProjectNumerical": 64111, "Shape__Area": 29422.389796925618, "Shape__Length": 693.5147981172838}}, {"type": "Feature", "id": 3389, "geometry": {"type": "Polygon", "coordinates": [[[-82.46788866973296, 27.988989575551024], [-82.46829313059595, 27.98922099184977], [-82.46931767785038, 27.988232605914863], [-82.4696784044038, 27.98768222137924], [-82.4691538416855, 27.98766610437106], [-82.46797139053614, 27.988836486012236], [-82.4667611825516, 27.988876413270887], [-82.4667685242139, 27.989019645393153], [-82.46788866973296, 27.988989575551024]]]}, "properties": {"FACILITYID": "171667", "projid": "P&R22021", "projname": "Rivercrest Park Boardwalk Renovation", "projdesc": "This project provides for the replacement of the seawall, boardwalk and docks at Rivercrest Park. Replacement of  new structural system, and a new dock system.", "rationale": "This project will replace the boardwalk and docks  to allow use of the waterfront amenity.  The seawall is failing and the shoreline will be stabilized to protect the community's investment.", "projtype": "Parks and Recreation", "safety": "No", "mandate": "No", "repair": "No", "replace": "Yes", "expand": "No", "efficient": "No", "fiscalyr": "2024", "fundsource": "Community Investment Taxes", "planstart": null, "planend": null, "estcost": 1100000, "funded": "Yes", "projphase": "P2: Design", "actstart": null, "actend": null, "actcost": 0, "status": "Permitting/Submittals Approval", "docpath": null, "CreationDate": 1649263000000, "EditDate": 1720472144000, "MultiYear": "Yes", "NumVotes": null, "ShowPublic": "Yes", "EBO": null, "JobsCreated": null, "Neighborhood": "South Seminole Heights", "Council": "6", "EBOAttained": null, "ContractNumber": "22-C-00010", "ActivityStatus": "R2.4-CCNA Committee Shortlist Approval (5)", "ProjectSiteURL": "<a href=\"https://apps.tampagov.net/Directory_Lister/FileHandler.ashx?file=GIS%2f1001936.pdf\">1001936</a>", "RelatedProject": "No", "MapScale": 6000, "WMBESLBE": 11, "ORACLEID": null, "EBUILDERID": null, "COMPROCUREMENT": null, "WATER": null, "WASTEWATER": null, "STORMWATER": null, "TRANSPORTATION": null, "OBJECTID": 3389, "GlobalID": "{72E3D154-9F09-4185-B168-9E56D3240BA2}", "ProjectNumerical": 39727, "Shape__Area": 134452.6576753308, "Shape__Length": 2420.73375497241}}, {"type": "Feature", "id": 3390, "geometry": {"type": "Polygon", "coordinates": [[[-82.42240000021555, 27.992390000338556], [-82.4223915791722, 27.990650093609077], [-82.42239244690117, 27.98991448016951], [-82.42124766457094, 27.989910350645868], [-82.4212507294736, 27.99023956732597], [-82.42130478691315, 27.990239401737547], [-82.42130609151961, 27.990574965023107], [-82.42130623115678, 27.990656902471237], [-82.4211488902371, 27.99065977215974], [-82.42115179362142, 27.990686700190953], [-82.42115166542844, 27.990710478170183], [-82.42107553711921, 27.99071064449935], [-82.42107066636184, 27.99109153033682], [-82.42043911457363, 27.991087086114845], [-82.42041319018342, 27.992366919917014], [-82.42107415168577, 27.992374601336227], [-82.421072817051, 27.992497610117674], [-82.42107013965753, 27.99278862813785], [-82.421232348267, 27.99278733184637], [-82.4212325336721, 27.992519902314555], [-82.42123254992646, 27.992496624619164], [-82.42123338912437, 27.99237645182248], [-82.42240000021555, 27.992390000338556]]]}, "properties": {"FACILITYID": "171668", "projid": "P&R22022", "projname": "East Tampa Recreational Complex", "projdesc": "This project provides for the design, acquisition, and construction of a 10 acre park complete with a renovated and expanded Community Center with a new Senior Center.", "rationale": "Improve and Increase Recreational Opportunities", "projtype": "Parks and Recreation", "safety": "No", "mandate": "No", "repair": "No", "replace": "No", "expand": "No", "efficient": "No", "fiscalyr": "2024", "fundsource": "Multiple Funding", "planstart": 1713153600000, "planend": 1777003200000, "estcost": 34686537, "funded": "Yes", "projphase": "P4: Construction", "actstart": null, "actend": null, "actcost": 0, "status": "Construction in Progress", "docpath": "https://www.tampa.gov/project/pr-22022", "CreationDate": 1649263232000, "EditDate": 1720472144000, "MultiYear": "Yes", "NumVotes": null, "ShowPublic": "Yes", "EBO": 30, "JobsCreated": 47, "Neighborhood": "The Legacy of Fair Oaks", "Council": "5", "EBOAttained": 9.66, "ContractNumber": "22-C-00028", "ActivityStatus": "C2.1-Construction", "ProjectSiteURL": "<a href=\"https://apps.tampagov.net/Directory_Lister/FileHandler.ashx?file=GIS%2f1001937.pdf\">1001937</a>", "RelatedProject": "No", "MapScale": 6000, "WMBESLBE": null, "ORACLEID": null, "EBUILDERID": null, "COMPROCUREMENT": null, "WATER": null, "WASTEWATER": null, "STORMWATER": null, "TRANSPORTATION": null, "OBJECTID": 3390, "GlobalID": "{90EF7407-4F58-4710-AFAE-9ADFAEFB40FA}", "ProjectNumerical": 39725, "Shape__Area": 469363.40033598134, "Shape__Length": 3402.040079620604}}, {"type": "Feature", "id": 3793, "geometry": {"type": "Polygon", "coordinates": [[[-82.42561527578371, 27.94913684294444], [-82.4258997217308, 27.949267760861787], [-82.42606938732955, 27.949337431961247], [-82.4264843100547, 27.949417804808128], [-82.42649308401084, 27.94932465747375], [-82.42606420515024, 27.949250060884175], [-82.42556967845373, 27.949028106689184], [-82.42527102823995, 27.94897745661885], [-82.42452885076719, 27.948956826045112], [-82.42453318425983, 27.949042402200845], [-82.42511648814867, 27.949062456804207], [-82.42534237520842, 27.94907035455228], [-82.42561527578371, 27.94913684294444]]]}, "properties": {"FACILITYID": "171983", "projid": "SW60000", "projname": "Clark & 30th St Pipe Relocation", "projdesc": "This project provides for relocating and upgrading an existing pond outfall system including installation of new pipes and inlets.", "rationale": "Flooding Relief", "projtype": "Stormwater", "safety": "No", "mandate": "No", "repair": "No", "replace": "No", "expand": "No", "efficient": "No", "fiscalyr": "2024", "fundsource": "Stormwater Improvement Fee", "planstart": 1696118400000, "planend": 1743465600000, "estcost": 225000, "funded": null, "projphase": "P5: Closeout", "actstart": null, "actend": null, "actcost": null, "status": "Construction in Progress", "docpath": null, "CreationDate": 1660232632000, "EditDate": 1749816930000, "MultiYear": "No", "NumVotes": null, "ShowPublic": "Yes", "EBO": null, "JobsCreated": null, "Neighborhood": null, "Council": null, "EBOAttained": null, "ContractNumber": null, "ActivityStatus": null, "ProjectSiteURL": null, "RelatedProject": "No", "MapScale": 6000, "WMBESLBE": null, "ORACLEID": null, "EBUILDERID": null, "COMPROCUREMENT": null, "WATER": null, "WASTEWATER": null, "STORMWATER": null, "TRANSPORTATION": null, "OBJECTID": 3793, "GlobalID": "{3E9E9263-99B7-4FBD-90BE-169D44404DEB}", "ProjectNumerical": 60000, "Shape__Area": 20448.04667699151, "Shape__Length": 1376.6973487183745}}, {"type": "Feature", "id": 4209, "geometry": {"type": "Polygon", "coordinates": [[[-82.36595167859255, 28.101817401842293], [-82.3650101698516, 28.1006083421916], [-82.36367403253776, 28.099303117901556], [-82.36245734952914, 28.098371797533655], [-82.36157401555772, 28.09835299982577], [-82.36499263313002, 28.104899718232183], [-82.3646800158267, 28.108004428886986], [-82.36429333567075, 28.11023451706797], [-82.36403647535239, 28.113912098849248], [-82.36568799485615, 28.118378874989975], [-82.36656597088952, 28.118861880760353], [-82.3668446509472, 28.118946660940864], [-82.36735064012511, 28.11839991889916], [-82.368376575966, 28.118369721934947], [-82.36887882685743, 28.11752303058997], [-82.37150373498625, 28.11756847069179], [-82.37168629120642, 28.118262073577025], [-82.37171399394394, 28.118456220220832], [-82.37175889129857, 28.118770316306826], [-82.37214213155619, 28.118444680460815], [-82.37211836055612, 28.11822272493679], [-82.37210069433982, 28.11809064408897], [-82.3720804255628, 28.11795884101697], [-82.3720576390235, 28.117827405729066], [-82.3720321678116, 28.117696338676836], [-82.37200417987343, 28.117565639403082], [-82.37197359003424, 28.117435398376887], [-82.37194048410936, 28.117305705603307], [-82.37157133012929, 28.115916915503266], [-82.37059247332755, 28.11312328451015], [-82.37056245978681, 28.11303753597369], [-82.36890721569372, 28.108313509136252], [-82.36796257815148, 28.10561723578887], [-82.36779795155365, 28.10517174127535], [-82.36769728050722, 28.104919846967043], [-82.36759166314395, 28.10466949990478], [-82.36748109909078, 28.104420880557715], [-82.36736567284323, 28.104173988687567], [-82.36724538371841, 28.10392891452364], [-82.36712031753757, 28.103685748965674], [-82.36699047330532, 28.10344449110094], [-82.36685593612961, 28.103205322070238], [-82.36671670633726, 28.102968331196333], [-82.36657278293275, 28.102733518467716], [-82.36642433486894, 28.102500883418337], [-82.36627127831618, 28.10227060763948], [-82.36611369806218, 28.102042780226956], [-82.36595167859255, 28.101817401842293]]]}, "properties": {"FACILITYID": "172000", "projid": "P&R22018", "projname": "Greenways, Trail & Gateway Sign - New Tampa Nature Park", "projdesc": "This project provides for the design of trails, signage, additional play elements and a restroom facility.  Implementation of the project will happen in multiple phases as funding becomes available.", "rationale": "Improve and Increase Recreational Opportunities", "projtype": "Parks and Recreation", "safety": "No", "mandate": "No", "repair": "No", "replace": "No", "expand": "No", "efficient": "No", "fiscalyr": "2023", "fundsource": "Community Investment Taxes", "planstart": null, "planend": null, "estcost": 500000, "funded": "No", "projphase": "P2: Design", "actstart": null, "actend": null, "actcost": 0, "status": "90% Design Completion", "docpath": null, "CreationDate": 1661972889000, "EditDate": 1720472144000, "MultiYear": "Yes", "NumVotes": null, "ShowPublic": "Yes", "EBO": null, "JobsCreated": 0, "Neighborhood": "TPOST 3", "Council": "7", "EBOAttained": 0, "ContractNumber": "22-D-13502", "ActivityStatus": null, "ProjectSiteURL": "<a href=\"https://apps.tampagov.net/Directory_Lister/FileHandler.ashx?file=GIS%2f1001618.pdf\">1001618</a>", "RelatedProject": "No", "MapScale": 6000, "WMBESLBE": 0, "ORACLEID": null, "EBUILDERID": null, "COMPROCUREMENT": null, "WATER": null, "WASTEWATER": null, "STORMWATER": null, "TRANSPORTATION": null, "OBJECTID": 4209, "GlobalID": "{200A3DD5-68D6-43DF-9426-EBC03A691590}", "ProjectNumerical": 39721, "Shape__Area": 10138633.8532624, "Shape__Length": 18820.169099164286}}, {"type": "Feature", "id": 4215, "geometry": {"type": "Polygon", "coordinates": [[[-82.46283358460352, 28.02227430132068], [-82.46255234873844, 28.02151279385446], [-82.4623471374301, 28.021241117627646], [-82.46210017214877, 28.021373267703975], [-82.461917589798, 28.02146102924513], [-82.46179659311656, 28.021479342257635], [-82.46185046762947, 28.021716507545225], [-82.46212438334042, 28.022277229447546], [-82.46283358460352, 28.02227430132068]]]}, "properties": {"FACILITYID": "172006", "projid": "P&R20002", "projname": "Purity Springs Restoration and Living Shoreline", "projdesc": "Restoration and stabilization of the spring run/basin and living shoreline along the Hillsborough River.", "rationale": "Resiliency and Sustainability: expand/enhance native vegetation and habitat, improve water quality, mitigate storm impacts, and protect infrastructure.", "projtype": "Parks and Recreation", "safety": "No", "mandate": "No", "repair": "No", "replace": "No", "expand": "No", "efficient": "No", "fiscalyr": "2025", "fundsource": "Multiple Funding", "planstart": null, "planend": 1782792000000, "estcost": 700000, "funded": "Yes", "projphase": "P2: Design", "actstart": null, "actend": null, "actcost": 0, "status": "90% Design Completion", "docpath": null, "CreationDate": 1661975079000, "EditDate": 1720472144000, "MultiYear": "Yes", "NumVotes": null, "ShowPublic": "Yes", "EBO": null, "JobsCreated": null, "Neighborhood": "Lowry Park Central", "Council": "6", "EBOAttained": null, "ContractNumber": "TBD", "ActivityStatus": null, "ProjectSiteURL": "<a href=\"https://apps.tampagov.net/Directory_Lister/FileHandler.ashx?file=GIS%2f1002316.pdf\">1002316</a>", "RelatedProject": "No", "MapScale": 6000, "WMBESLBE": null, "ORACLEID": null, "EBUILDERID": null, "COMPROCUREMENT": null, "WATER": null, "WASTEWATER": null, "STORMWATER": null, "TRANSPORTATION": null, "OBJECTID": 4215, "GlobalID": "{F22B3C3E-758A-4665-8537-5287732A0E51}", "ProjectNumerical": 64512, "Shape__Area": 78880.48514154748, "Shape__Length": 1148.8652963760028}}, {"type": "Feature", "id": 4218, "geometry": {"type": "Polygon", "coordinates": [[[-82.4818654972643, 27.96222900039404], [-82.48280344803108, 27.96222953290254], [-82.48280390520536, 27.961591596798808], [-82.48186595995385, 27.96159106422448], [-82.4818654972643, 27.96222900039404]]]}, "properties": {"FACILITYID": "172009", "projid": "P&R22009", "projname": "Rey Park Improvements", "projdesc": "Improvements to Rey Park site and community center based on public input.", "rationale": "Facility and Park Improvements", "projtype": "Parks and Recreation", "safety": "No", "mandate": "No", "repair": "No", "replace": "No", "expand": "No", "efficient": "No", "fiscalyr": "2025", "fundsource": "Community Redevelopment Agency", "planstart": null, "planend": null, "estcost": 3800000, "funded": "Yes", "projphase": "P2: Design", "actstart": null, "actend": null, "actcost": 0, "status": "Planning", "docpath": "https://tampa-fl.civilspace.io/en/projects/rey-park-and-community-center-renovations", "CreationDate": 1661975451000, "EditDate": 1720472144000, "MultiYear": "Yes", "NumVotes": null, "ShowPublic": "Yes", "EBO": null, "JobsCreated": 100, "Neighborhood": "Old West Tampa", "Council": "5", "EBOAttained": null, "ContractNumber": "22-C-00035", "ActivityStatus": null, "ProjectSiteURL": "<a href=\"https://apps.tampagov.net/Directory_Lister/FileHandler.ashx?file=GIS%2f1002351.pdf\">1002351</a>", "RelatedProject": "No", "MapScale": 6000, "WMBESLBE": null, "ORACLEID": null, "EBUILDERID": null, "COMPROCUREMENT": null, "WATER": null, "WASTEWATER": null, "STORMWATER": null, "TRANSPORTATION": null, "OBJECTID": 4218, "GlobalID": "{902CA610-E120-4956-AE67-2362979E0751}", "ProjectNumerical": 64113, "Shape__Area": 70224.75937598156, "Shape__Length": 1069.4270910863374}}, {"type": "Feature", "id": 4220, "geometry": {"type": "Polygon", "coordinates": [[[-82.48254290481768, 27.95738229670609], [-82.48285282288498, 27.957385984439966], [-82.48285343437963, 27.957221235712264], [-82.48254284502394, 27.957217550328934], [-82.48254290481768, 27.95738229670609]]]}, "properties": {"FACILITYID": "172011", "projid": "P&R22010", "projname": "Salcines Park Improvements", "projdesc": "Improvements to Salcines Park based on public input.", "rationale": "Park improvements based on desired use and the context.", "projtype": "Parks and Recreation", "safety": "No", "mandate": "No", "repair": "No", "replace": "No", "expand": "No", "efficient": "No", "fiscalyr": "2025", "fundsource": "Community Redevelopment Agency", "planstart": null, "planend": null, "estcost": 1200000, "funded": "Yes", "projphase": "P2: Design", "actstart": null, "actend": null, "actcost": 0, "status": "90% Design Completion", "docpath": "https://www.tampa.gov/cras/westtampacra/highlighted", "CreationDate": 1661976668000, "EditDate": 1720472144000, "MultiYear": "Yes", "NumVotes": null, "ShowPublic": "Yes", "EBO": null, "JobsCreated": null, "Neighborhood": "Old West Tampa", "Council": "5", "EBOAttained": null, "ContractNumber": "22-C-00029", "ActivityStatus": null, "ProjectSiteURL": "<a href=\"https://apps.tampagov.net/Directory_Lister/FileHandler.ashx?file=GIS%2f1002352.pdf\">1002352</a>", "RelatedProject": "No", "MapScale": 6000, "WMBESLBE": null, "ORACLEID": null, "EBUILDERID": null, "COMPROCUREMENT": null, "WATER": null, "WASTEWATER": null, "STORMWATER": null, "TRANSPORTATION": null, "OBJECTID": 4220, "GlobalID": "{BCF56DEE-3831-4F3D-BF8F-92B0F37A5518}", "ProjectNumerical": 64513, "Shape__Area": 5999.2491879637355, "Shape__Length": 320.1275401196604}}, {"type": "Feature", "id": 4994, "geometry": {"type": "MultiPolygon", "coordinates": [[[[-82.46138019611216, 28.038025825788676], [-82.46051755673011, 28.03803764955667], [-82.46051277147495, 28.038864521669534], [-82.46133614480897, 28.038821021036977], [-82.46138019611216, 28.038025825788676]]], [[[-82.46138040663139, 28.03802582327684], [-82.46138046050606, 28.038021048494702], [-82.46138019611216, 28.038025825788676], [-82.46138040663139, 28.03802582327684]]]]}, "properties": {"FACILITYID": "172034", "projid": "SW60004", "projname": "North Ashley Pond Expansion", "projdesc": "Currently there is substantial flooding on N Tampa St east of the existing Ashley stormwater pond. The project consists of the expansion of the existing stormwater pond to alleviate flooding in the neighborhood. \r\n\r\nCurrently there is substantial flooding on N Tampa St east of the existing Ashley stormwater pond. The project consists of the expansion of the existing stormwater pond to alleviate flooding in the neighborhood. \r\nCurrently there is substantial flooding on N Tampa St east of the existing Ashley stormwater pond. The project consists of the expansion of the existing stormwater pond to alleviate flooding in the neighborhood. \r\n\r\n", "rationale": "Flooding Relief, Water Quality", "projtype": "Stormwater", "safety": "No", "mandate": "No", "repair": "No", "replace": "No", "expand": "No", "efficient": "Yes", "fiscalyr": "2025", "fundsource": "Stormwater Improvement Fee", "planstart": 1759276800000, "planend": 1830211200000, "estcost": 75000, "funded": "Yes", "projphase": "P4: Construction", "actstart": null, "actend": null, "actcost": null, "status": "Project Startup", "docpath": null, "CreationDate": 1666014760000, "EditDate": 1773668171000, "MultiYear": "No", "NumVotes": null, "ShowPublic": "Yes", "EBO": null, "JobsCreated": null, "Neighborhood": null, "Council": null, "EBOAttained": null, "ContractNumber": null, "ActivityStatus": null, "ProjectSiteURL": null, "RelatedProject": "No", "MapScale": 6000, "WMBESLBE": null, "ORACLEID": null, "EBUILDERID": null, "COMPROCUREMENT": null, "WATER": null, "WASTEWATER": null, "STORMWATER": null, "TRANSPORTATION": null, "OBJECTID": 4994, "GlobalID": "{A1578E11-6DD0-4993-89B7-6DD6EACE2C8A}", "ProjectNumerical": 60004, "Shape__Area": 80107.0616447802, "Shape__Length": 1138.0142999641846}}, {"type": "Feature", "id": 5393, "geometry": {"type": "Polygon", "coordinates": [[[-82.44055124477971, 28.001608301088744], [-82.44055201597676, 28.00020357064317], [-82.44039508014171, 28.000214778644335], [-82.44039791333543, 28.001608792307103], [-82.44055124477971, 28.001608301088744]]]}, "properties": {"FACILITYID": "176384", "projid": "SW60006", "projname": "Mabel North of Henry", "projdesc": "Low-lying on Mabel St between Henry and Idlewild Ave experiences frequent flooding due to insufficient drainange capcity. The proposed project consists of construction of new pipes and inlets connecting to the existing drainage system to alleviate the flooding.", "rationale": "Flooding Relief", "projtype": "Stormwater", "safety": "No", "mandate": "No", "repair": "No", "replace": "No", "expand": "No", "efficient": "Yes", "fiscalyr": "2025", "fundsource": "Stormwater Improvement Fee", "planstart": 1761868800000, "planend": 1780272000000, "estcost": 90000, "funded": "Yes", "projphase": "P4: Construction", "actstart": null, "actend": null, "actcost": null, "status": "Project Startup", "docpath": null, "CreationDate": 1670262088000, "EditDate": 1773668140000, "MultiYear": "No", "NumVotes": null, "ShowPublic": "Yes", "EBO": null, "JobsCreated": null, "Neighborhood": null, "Council": null, "EBOAttained": null, "ContractNumber": null, "ActivityStatus": null, "ProjectSiteURL": null, "RelatedProject": "No", "MapScale": 6000, "WMBESLBE": null, "ORACLEID": null, "EBUILDERID": null, "COMPROCUREMENT": null, "WATER": null, "WASTEWATER": null, "STORMWATER": null, "TRANSPORTATION": null, "OBJECTID": 5393, "GlobalID": "{491C313C-FB98-46FE-9E46-221EBA612918}", "ProjectNumerical": 60006, "Shape__Area": 25469.920882613635, "Shape__Length": 1117.8178552202803}}, {"type": "Feature", "id": 5394, "geometry": {"type": "Polygon", "coordinates": [[[-82.51394055172652, 27.94128235153156], [-82.51414219274318, 27.94128279531341], [-82.51413009535655, 27.94128274663593], [-82.5141467232844, 27.93945693643618], [-82.51396806247891, 27.939459547235785], [-82.51394055172652, 27.94128235153156]]]}, "properties": {"FACILITYID": "176385", "projid": "SW60007", "projname": "Woodmere & Lois ", "projdesc": "Lois Ave and Dale Ave southeast of woodmere Rd experiences flooding due to insufficient drainage capacity. The proposed project consists of construction of new pipes and inlets connecting on Lois Ave and Dale Ave toalleviate the flooding.", "rationale": "Floodig Relief", "projtype": "Stormwater", "safety": "No", "mandate": "No", "repair": "No", "replace": "No", "expand": "No", "efficient": "No", "fiscalyr": "2027", "fundsource": "Stormwater Improvement Fee", "planstart": 1798588800000, "planend": 1814313600000, "estcost": 150000, "funded": "Yes", "projphase": "P2: Design", "actstart": null, "actend": null, "actcost": null, "status": "60% Design Completion", "docpath": null, "CreationDate": 1670263327000, "EditDate": 1773929572000, "MultiYear": "No", "NumVotes": null, "ShowPublic": "Yes", "EBO": null, "JobsCreated": null, "Neighborhood": null, "Council": null, "EBOAttained": null, "ContractNumber": null, "ActivityStatus": null, "ProjectSiteURL": null, "RelatedProject": "No", "MapScale": 6000, "WMBESLBE": null, "ORACLEID": null, "EBUILDERID": null, "COMPROCUREMENT": null, "WATER": null, "WASTEWATER": null, "STORMWATER": null, "TRANSPORTATION": null, "OBJECTID": 5394, "GlobalID": "{28ADF0C0-A611-4E78-83AB-BE27D03BD734}", "ProjectNumerical": 60007, "Shape__Area": 39423.06430027445, "Shape__Length": 1453.3018877730744}}, {"type": "Feature", "id": 5795, "geometry": {"type": "Polygon", "coordinates": [[[-82.4387036253777, 28.049510348948104], [-82.43875168425971, 28.04943766948699], [-82.43838788749791, 28.049264459440533], [-82.43832292490654, 28.049403023757147], [-82.4387036253777, 28.049510348948104]]]}, "properties": {"FACILITYID": "176394", "projid": "SW50009", "projname": "Copeland Park Pump Station", "projdesc": "Construction of a new pumping station", "rationale": "Flooding Relief", "projtype": "Stormwater", "safety": "No", "mandate": "No", "repair": "No", "replace": "No", "expand": "No", "efficient": "No", "fiscalyr": "2025", "fundsource": "Stormwater Improvement Fee", "planstart": 1735689600000, "planend": 1759190400000, "estcost": 325000, "funded": "Yes", "projphase": "P4: Construction", "actstart": null, "actend": null, "actcost": null, "status": "Construction in Progress", "docpath": null, "CreationDate": 1671631290000, "EditDate": 1751462007000, "MultiYear": "No", "NumVotes": null, "ShowPublic": "Yes", "EBO": null, "JobsCreated": null, "Neighborhood": null, "Council": null, "EBOAttained": null, "ContractNumber": null, "ActivityStatus": null, "ProjectSiteURL": null, "RelatedProject": "No", "MapScale": 6000, "WMBESLBE": null, "ORACLEID": null, "EBUILDERID": null, "COMPROCUREMENT": null, "WATER": null, "WASTEWATER": null, "STORMWATER": null, "TRANSPORTATION": null, "OBJECTID": 5795, "GlobalID": "{BCF1A080-32DB-4134-86A6-D4FA657979C5}", "ProjectNumerical": 50009, "Shape__Area": 5540.2999469769, "Shape__Length": 347.21534920943844}}, {"type": "Feature", "id": 6193, "geometry": {"type": "Polygon", "coordinates": [[[-82.4688289685234, 28.01425855116691], [-82.46913822717501, 28.01422765079707], [-82.46923802776061, 28.013976610820684], [-82.46926319703468, 28.01357659968305], [-82.46910045978831, 28.01327273396848], [-82.46875700647293, 28.013172432231148], [-82.46861592136065, 28.013208727877526], [-82.46850597511126, 28.01422383790523], [-82.46882221746523, 28.01425260479733], [-82.4688289685234, 28.01425855116691]]]}, "properties": {"FACILITYID": "176395", "projid": "1001169", "projname": "Hamilton Creek Water Quality Improvements", "projdesc": "This project provides for the reconstruction of 5 water quality treatment ponds for Hamilton Creek to improve water quality. The project is part of the effort to comply with the Surface Water Improvement and Management SWIM pond permit requirements.", "rationale": null, "projtype": "Stormwater", "safety": "No", "mandate": "No", "repair": "No", "replace": "No", "expand": "No", "efficient": "Yes", "fiscalyr": "2024", "fundsource": "Stormwater Improvement Fee", "planstart": 1711929600000, "planend": 1733011200000, "estcost": 500000, "funded": "Yes", "projphase": "P2: Design", "actstart": null, "actend": null, "actcost": null, "status": "90% Design Completion", "docpath": null, "CreationDate": 1672841586000, "EditDate": 1707423517000, "MultiYear": "No", "NumVotes": null, "ShowPublic": "Yes", "EBO": null, "JobsCreated": null, "Neighborhood": null, "Council": null, "EBOAttained": null, "ContractNumber": null, "ActivityStatus": null, "ProjectSiteURL": null, "RelatedProject": "No", "MapScale": 6000, "WMBESLBE": null, "ORACLEID": null, "EBUILDERID": null, "COMPROCUREMENT": null, "WATER": null, "WASTEWATER": null, "STORMWATER": null, "TRANSPORTATION": null, "OBJECTID": 6193, "GlobalID": "{947CBA7B-E694-418D-9776-B60EF51FD574}", "ProjectNumerical": 60010, "Shape__Area": 77756.24408611917, "Shape__Length": 1105.6418164622403}}, {"type": "Feature", "id": 6593, "geometry": {"type": "Polygon", "coordinates": [[[-82.47557945078424, 27.97983980888608], [-82.47557275742828, 27.97982366359843], [-82.47557322539923, 27.979824213351307], [-82.47556773181209, 27.979810451684703], [-82.47551981361454, 27.979832665847738], [-82.47559272890344, 27.979847112183574], [-82.47557322539923, 27.979824213351307], [-82.47557945078424, 27.97983980888608]]]}, "properties": {"FACILITYID": "176753", "projid": "SW60011", "projname": "Virginia Avenue Pumping Station Drainage Improvements", "projdesc": "This project provides for the rehabilitation and construction of new conveyance/outfall system adjacent to the existing Wastewater pumping station.", "rationale": "Flooding Relief", "projtype": "Stormwater", "safety": "No", "mandate": "No", "repair": "No", "replace": "No", "expand": "No", "efficient": "Yes", "fiscalyr": "2023", "fundsource": "Stormwater Improvement Fee", "planstart": 1678838400000, "planend": 1757548800000, "estcost": 330000, "funded": "Yes", "projphase": "P5: Closeout", "actstart": null, "actend": null, "actcost": null, "status": "Closeout", "docpath": null, "CreationDate": 1680119565000, "EditDate": 1773667832000, "MultiYear": "No", "NumVotes": null, "ShowPublic": "Yes", "EBO": null, "JobsCreated": null, "Neighborhood": null, "Council": null, "EBOAttained": null, "ContractNumber": null, "ActivityStatus": null, "ProjectSiteURL": null, "RelatedProject": "No", "MapScale": 6000, "WMBESLBE": null, "ORACLEID": null, "EBUILDERID": null, "COMPROCUREMENT": null, "WATER": null, "WASTEWATER": null, "STORMWATER": null, "TRANSPORTATION": null, "OBJECTID": 6593, "GlobalID": "{0C10AC27-AF7A-4326-8769-C283B5F69D95}", "ProjectNumerical": 60011, "Shape__Area": 127.0556530166579, "Shape__Length": 69.82707623257393}}, {"type": "Feature", "id": 6993, "geometry": {"type": "Polygon", "coordinates": [[[-82.44502419620615, 27.993297892876775], [-82.444976855239, 27.993298046068656], [-82.44497010341264, 27.994306481168035], [-82.44501566033772, 27.994307251496547], [-82.44502419620615, 27.993297892876775]]]}, "properties": {"FACILITYID": "178255", "projid": "SW60009", "projname": "Conover and 13th ", "projdesc": "Intersection area of 13th Street and Conover Street. experiences frequent flooding due to insufficient", "rationale": "Flooding Relief", "projtype": "Stormwater", "safety": "No", "mandate": "No", "repair": "No", "replace": "No", "expand": "No", "efficient": "Yes", "fiscalyr": "2027", "fundsource": "Stormwater Improvement Fee", "planstart": 1769904000000, "planend": 1819670400000, "estcost": 90000, "funded": "Yes", "projphase": "P2: Design", "actstart": null, "actend": null, "actcost": null, "status": "90% Design Completion", "docpath": null, "CreationDate": 1686590255000, "EditDate": 1773925314000, "MultiYear": "No", "NumVotes": null, "ShowPublic": "Yes", "EBO": null, "JobsCreated": null, "Neighborhood": null, "Council": null, "EBOAttained": null, "ContractNumber": null, "ActivityStatus": null, "ProjectSiteURL": null, "RelatedProject": "No", "MapScale": 6000, "WMBESLBE": null, "ORACLEID": null, "EBUILDERID": null, "COMPROCUREMENT": null, "WATER": null, "WASTEWATER": null, "STORMWATER": null, "TRANSPORTATION": null, "OBJECTID": 6993, "GlobalID": "{0063C0AE-1A86-430A-AE03-86C13F5DB752}", "ProjectNumerical": 60009, "Shape__Area": 5498.564329870176, "Shape__Length": 763.6023002601656}}, {"type": "Feature", "id": 6994, "geometry": {"type": "Polygon", "coordinates": [[[-82.48577902673456, 27.879932609910412], [-82.48577904005408, 27.879935595066627], [-82.48578223868849, 27.879899768579186], [-82.48454279742946, 27.879889207236797], [-82.48454298338788, 27.879930990407626], [-82.48577902673456, 27.879932609910412]]]}, "properties": {"FACILITYID": "178257", "projid": "SW60008", "projname": "2504 Gardner Ct", "projdesc": "2500 block of Gardner Court experiences frequent flooding due to low elevations and lack of", "rationale": "Flooding Relief", "projtype": "Stormwater", "safety": "No", "mandate": "No", "repair": "No", "replace": "No", "expand": "No", "efficient": "No", "fiscalyr": "2024", "fundsource": "Stormwater Improvement Fee", "planstart": 1710460800000, "planend": 1741996800000, "estcost": 200000, "funded": "Yes", "projphase": null, "actstart": null, "actend": null, "actcost": null, "status": "Cancelled", "docpath": null, "CreationDate": 1686591181000, "EditDate": 1702993925000, "MultiYear": "No", "NumVotes": null, "ShowPublic": "Yes", "EBO": null, "JobsCreated": null, "Neighborhood": null, "Council": null, "EBOAttained": null, "ContractNumber": null, "ActivityStatus": null, "ProjectSiteURL": null, "RelatedProject": "No", "MapScale": 6000, "WMBESLBE": null, "ORACLEID": null, "EBUILDERID": null, "COMPROCUREMENT": null, "WATER": null, "WASTEWATER": null, "STORMWATER": null, "TRANSPORTATION": null, "OBJECTID": 6994, "GlobalID": "{DD917BE8-D747-4E59-AC3F-66100D873C61}", "ProjectNumerical": 60008, "Shape__Area": 5425.906092645275, "Shape__Length": 829.0811943871587}}, {"type": "Feature", "id": 8603, "geometry": {"type": "Polygon", "coordinates": [[[-82.44926727087342, 27.9095303949963], [-82.44921732656165, 27.909523378876372], [-82.44916882489254, 27.909509549620786], [-82.44912269064866, 27.909489170912316], [-82.44907980347286, 27.90946263131232], [-82.44904098109602, 27.909430436852038], [-82.44900696374539, 27.909393201384088], [-82.44897840003071, 27.9093516348781], [-82.44895583457705, 27.90930652988372], [-82.4489396976405, 27.909258746419056], [-82.44893029690445, 27.909209195572657], [-82.44892781161299, 27.909158822131808], [-82.44893228915323, 27.90910858656821], [-82.44909415253329, 27.908713955926235], [-82.4482424541638, 27.90833065563318], [-82.44821052340849, 27.908364441362945], [-82.4480913896686, 27.908514488283235], [-82.44797737329156, 27.908668459683284], [-82.44786860345789, 27.908826181113508], [-82.44776520340382, 27.908987473875545], [-82.44766729028159, 27.90915215522471], [-82.44757497502675, 27.909320038577054], [-82.4474883622325, 27.90949093372075], [-82.44744563038024, 27.909602232371856], [-82.44641797878931, 27.9096781336063], [-82.44642975014038, 27.910019007441583], [-82.44685995992438, 27.910011500827373], [-82.44686191750428, 27.91012150557852], [-82.44688540640354, 27.910380119310645], [-82.44689121875173, 27.910448251937304], [-82.44690357355654, 27.910515506654644], [-82.44692235568267, 27.910581256711257], [-82.44694739009817, 27.910644889377764], [-82.4469784435056, 27.910705811656893], [-82.44701522651606, 27.91076345580966], [-82.4470573963461, 27.910817284646182], [-82.44710456001212, 27.910866796531757], [-82.44715627799265, 27.91091153006166], [-82.44717892408136, 27.910941535064058], [-82.44733969641405, 27.911102244616504], [-82.44745311551509, 27.91109259226066], [-82.44749446013489, 27.911351258849095], [-82.44764657253252, 27.91132451249312], [-82.44782152355481, 27.911303009186692], [-82.44799710837854, 27.911287510088158], [-82.44817312100427, 27.911278033381365], [-82.44834935493058, 27.911274590184565], [-82.44852560339645, 27.911277184537383], [-82.44870165962378, 27.911285813396074], [-82.44887731706004, 27.911300466637098], [-82.44909951679699, 27.91133101130376], [-82.44932253874386, 27.911354821196177], [-82.44954617882006, 27.91137187452665], [-82.44977023237935, 27.911382155690198], [-82.44999449439719, 27.91138565527883], [-82.4502187596582, 27.911382370090195], [-82.45030172609648, 27.911374669360757], [-82.45036891183133, 27.91137364699717], [-82.45043565259465, 27.911365859911417], [-82.45050126900851, 27.911351387371017], [-82.45056509314013, 27.911330376697105], [-82.45062647530096, 27.911303041764793], [-82.4506847906602, 27.911269660826072], [-82.4507394456051, 27.911230573677376], [-82.45078988378351, 27.91118617820068], [-82.45083559176734, 27.91113692631332], [-82.45087610427875, 27.911083319367755], [-82.4509110089265, 27.91102590304813], [-82.45093995040378, 27.91096526181557], [-82.45096263410501, 27.910902012958722], [-82.45097882912474, 27.910836800310182], [-82.45098837060809, 27.910770287692664], [-82.45099116142892, 27.910703152161737], [-82.45098717317849, 27.910636077113825], [-82.45098185060644, 27.910183339741838], [-82.45098344335554, 27.909558011213928], [-82.44926727087342, 27.9095303949963]]]}, "properties": {"FACILITYID": "180357", "projid": "PR-21017", "projname": "Citywide Dock & Boardwalk Replacement - Davis Islands Seaplane Basin Mooring Field", "projdesc": "This project will replace the failing docks in the sea plane basin, and include a mooring field and aids to navigation to make the basin safer and cleaner.", "rationale": "Maintenance and facility upgrades", "projtype": "Parks and Recreation", "safety": "No", "mandate": "No", "repair": "No", "replace": "No", "expand": "No", "efficient": "No", "fiscalyr": "2024", "fundsource": "Multiple Funding", "planstart": null, "planend": null, "estcost": 1500000, "funded": "No", "projphase": "P2: Design", "actstart": null, "actend": null, "actcost": 0, "status": "Permitting/Submittals Approval", "docpath": null, "CreationDate": 1720642377000, "EditDate": 1720807291000, "MultiYear": "Yes", "NumVotes": null, "ShowPublic": "Yes", "EBO": null, "JobsCreated": null, "Neighborhood": "Davis Islands", "Council": "4", "EBOAttained": null, "ContractNumber": null, "ActivityStatus": null, "ProjectSiteURL": "<a href=\"https://apps.tampagov.net/Directory_Lister/FileHandler.ashx?file=GIS%2f1001426.pdf\">1001426</a>", "RelatedProject": "No", "MapScale": 6000, "WMBESLBE": null, "ORACLEID": null, "EBUILDERID": null, "COMPROCUREMENT": null, "WATER": null, "WASTEWATER": null, "STORMWATER": null, "TRANSPORTATION": null, "OBJECTID": 8603, "GlobalID": "{D801A88A-8666-42BB-AB86-414E8E5EF761}", "ProjectNumerical": 64508, "Shape__Area": 991919.7609782651, "Shape__Length": 4622.745165768551}}, {"type": "Feature", "id": 8604, "geometry": {"type": "MultiPolygon", "coordinates": [[[[-82.51777555532848, 27.919839942275946], [-82.51788756792998, 27.919877712176646], [-82.51787602058262, 27.917698933800605], [-82.51787754255896, 27.917484234354994], [-82.51833155411471, 27.917489752506015], [-82.51833227338957, 27.917410925924255], [-82.5177931060542, 27.91738431452873], [-82.51777253460862, 27.9177210492548], [-82.51776637066361, 27.919827027190472], [-82.51778249795193, 27.91981258032731], [-82.51777555532848, 27.919839942275946]]], [[[-82.51777555532848, 27.919839942275946], [-82.51776634220914, 27.9198368356096], [-82.51776622534797, 27.919876710009675], [-82.51777555532848, 27.919839942275946]]], [[[-82.51776637066361, 27.919827027190472], [-82.51775840818011, 27.919834159999997], [-82.51776634220914, 27.9198368356096], [-82.51776637066361, 27.919827027190472]]]]}, "properties": {"FACILITYID": "180359", "projid": "SW60012", "projname": "Manhattan : Obispo to Bay to Bay Flooding Relief-Phase 2", "projdesc": "This project consists of design and construction of a new drainage conveyance system as well as the replacement and upsizing of the existing drainage conveyance system in a residential neighborhood in the City of Tampa. During high intensity and short duration rain storm events the area experiences street flooding due to an old and undersized drainage system. This project is located along Manhattan Avenue tying into the Emerson Ditch at 3111 Manhattan and runs north to Bay to Bay. This project will also consist of new watermain upgrades along the corridor.", "rationale": "Flooding Relief", "projtype": "Stormwater", "safety": "No", "mandate": "No", "repair": "No", "replace": "No", "expand": "No", "efficient": "No", "fiscalyr": "On Hold", "fundsource": "Stormwater Improvement Fee", "planstart": null, "planend": null, "estcost": 3000000, "funded": "Yes", "projphase": "P1: Planning", "actstart": null, "actend": null, "actcost": null, "status": null, "docpath": null, "CreationDate": 1720718543000, "EditDate": 1773928555000, "MultiYear": "No", "NumVotes": null, "ShowPublic": "Yes", "EBO": null, "JobsCreated": null, "Neighborhood": null, "Council": null, "EBOAttained": null, "ContractNumber": null, "ActivityStatus": null, "ProjectSiteURL": null, "RelatedProject": "No", "MapScale": 6000, "WMBESLBE": null, "ORACLEID": null, "EBUILDERID": null, "COMPROCUREMENT": null, "WATER": null, "WASTEWATER": null, "STORMWATER": null, "TRANSPORTATION": null, "OBJECTID": 8604, "GlobalID": "{6678F502-80AC-4502-9B1C-816700969EB7}", "ProjectNumerical": 60012, "Shape__Area": 36548.575285956686, "Shape__Length": 2205.779535147524}}, {"type": "Feature", "id": 8607, "geometry": {"type": "MultiPolygon", "coordinates": [[[[-82.43614800413133, 28.03914047763659], [-82.43611722931331, 28.039315138715278], [-82.436141862476, 28.039417727698442], [-82.4361664946697, 28.03952031667839], [-82.43622575426349, 28.0395344541422], [-82.4363820040857, 28.03957693477198], [-82.43649236226004, 28.039583747421087], [-82.43655166910338, 28.03960982247003], [-82.43661677377001, 28.039738546246323], [-82.43663317021085, 28.039800572170098], [-82.43674892054369, 28.03980975522729], [-82.43682661122355, 28.039723553503883], [-82.43689859257238, 28.039556192516404], [-82.43697052444392, 28.03937689286729], [-82.43703984316905, 28.03921670263585], [-82.43702077476307, 28.039159459866276], [-82.43695340434563, 28.039135798422013], [-82.43682419049655, 28.039124271490017], [-82.43642861064043, 28.039123141060266], [-82.43614800413133, 28.03914047763659]]], [[[-82.4361487985773, 28.039135967615618], [-82.43614073586294, 28.039138380970236], [-82.43614343661311, 28.039140760151636], [-82.43614800413133, 28.03914047763659], [-82.4361487985773, 28.039135967615618]]]]}, "properties": {"FACILITYID": "180367", "projid": "SW60013", "projname": "NTCB-99th Ave -West Pond Expansion", "projdesc": "Property acquisition and pond expansion.", "rationale": "Flood Relief/ Water Quality", "projtype": "Stormwater", "safety": "No", "mandate": "No", "repair": "No", "replace": "No", "expand": "Yes", "efficient": "No", "fiscalyr": "2027", "fundsource": "Stormwater Improvement Fee", "planstart": 1801440000000, "planend": 1848614400000, "estcost": 50000, "funded": null, "projphase": "P2: Design", "actstart": null, "actend": null, "actcost": null, "status": "90% Design Completion", "docpath": null, "CreationDate": 1723061336000, "EditDate": 1773929044000, "MultiYear": "No", "NumVotes": null, "ShowPublic": "Yes", "EBO": null, "JobsCreated": null, "Neighborhood": null, "Council": null, "EBOAttained": null, "ContractNumber": null, "ActivityStatus": null, "ProjectSiteURL": null, "RelatedProject": "No", "MapScale": 6000, "WMBESLBE": null, "ORACLEID": null, "EBUILDERID": null, "COMPROCUREMENT": null, "WATER": null, "WASTEWATER": null, "STORMWATER": null, "TRANSPORTATION": null, "OBJECTID": 8607, "GlobalID": "{F393EAC4-A29D-4BC2-B79A-976DA821D6D8}", "ProjectNumerical": 60013, "Shape__Area": 49763.759616437936, "Shape__Length": 931.2924886195568}}, {"type": "Feature", "id": 9006, "geometry": {"type": "Polygon", "coordinates": [[[-82.40795656149943, 27.959311663048137], [-82.40822503861175, 27.959313934279546], [-82.4084629388235, 27.959315946503963], [-82.4087910320175, 27.959318721009087], [-82.40893807527364, 27.959262442777657], [-82.4090037091084, 27.95917644257851], [-82.40902629112539, 27.959063330021745], [-82.4090378996832, 27.95888759815022], [-82.4090262126709, 27.95863566434393], [-82.40903499529908, 27.958523954530904], [-82.40902688377903, 27.958406847950616], [-82.4090693293741, 27.958273246580994], [-82.40918270300217, 27.95823749792079], [-82.40915775475507, 27.95812997450555], [-82.4091317402625, 27.958146395468088], [-82.40907973281081, 27.95818468609307], [-82.40901239149208, 27.958224384011498], [-82.4089557873004, 27.958264049993666], [-82.40892684312513, 27.958317253914775], [-82.40891785098198, 27.95837312203851], [-82.40891633278659, 27.95878444795002], [-82.40892121176184, 27.958857981130038], [-82.40893373923709, 27.958926043707987], [-82.40893097999785, 27.959007770943032], [-82.40892821461055, 27.95908813735451], [-82.40882732741395, 27.959181051861915], [-82.4086954848109, 27.959200511451897], [-82.40844542552351, 27.95919171977697], [-82.40810799187989, 27.959198168647298], [-82.40792707995078, 27.959221859129674], [-82.40786131212495, 27.959272447574843], [-82.4078798525776, 27.95930780427301], [-82.40795656149943, 27.959311663048137]]]}, "properties": {"FACILITYID": "350255", "projid": "SW250001", "projname": "43rd St Drainage Improvements", "projdesc": "Project area is located just west of the Tampa Distribution Center located at 1212 N. 50th Street as in identified as the 43rd Street Drainage Improvements because of the nearest downstream crossing. Work involves approximately 700 feet of concrete slope stabilization of an existing ditch and all miscellaneous and appurtenant work. ", "rationale": "The ditch alignment and sandy soils have caused heavy erosion in some embankment areas, causing continuous maintenance issues and the ditch to widen beyond its existing drainage easement limits.  The rehabilitation involves embankment reconstruction and hardening to insure long-term future stability, reducing maintenance activities and reducing potential damage to adjacent parcels. The ditch bottom will remain open to allow for natural infiltration", "projtype": "Stormwater", "safety": "No", "mandate": "No", "repair": "No", "replace": "No", "expand": "No", "efficient": "No", "fiscalyr": "2025", "fundsource": null, "planstart": 1746057600000, "planend": 1780272000000, "estcost": 2280000, "funded": null, "projphase": null, "actstart": null, "actend": null, "actcost": null, "status": null, "docpath": null, "CreationDate": 1738757722000, "EditDate": 1743433883000, "MultiYear": "No", "NumVotes": null, "ShowPublic": "Yes", "EBO": null, "JobsCreated": null, "Neighborhood": null, "Council": null, "EBOAttained": null, "ContractNumber": null, "ActivityStatus": null, "ProjectSiteURL": null, "RelatedProject": "No", "MapScale": 6000, "WMBESLBE": null, "ORACLEID": null, "EBUILDERID": null, "COMPROCUREMENT": null, "WATER": null, "WASTEWATER": null, "STORMWATER": null, "TRANSPORTATION": null, "OBJECTID": 9006, "GlobalID": "{705FEB64-FA63-44CF-A784-FAAF834753DF}", "ProjectNumerical": null, "Shape__Area": 28429.35940021608, "Shape__Length": 1558.6338689183153}}, {"type": "Feature", "id": 9007, "geometry": {"type": "Polygon", "coordinates": [[[-82.50962200638773, 27.95734962863883], [-82.50967625900576, 27.95739548481458], [-82.509689435876, 27.957514627792083], [-82.50968844434001, 27.957676769704882], [-82.50968331989297, 27.95777948624923], [-82.50968784847856, 27.95792293510098], [-82.5096868349625, 27.95822947579067], [-82.50967386145074, 27.95860522305443], [-82.50966423753188, 27.959224804557838], [-82.50970610542694, 27.959243199387885], [-82.50973731004143, 27.95921525989781], [-82.50974609012066, 27.958860936000324], [-82.50974807043497, 27.957948303439725], [-82.50975753111922, 27.957738661734794], [-82.50974797283922, 27.957482716651242], [-82.50974740647467, 27.957362148096635], [-82.50971385154732, 27.957334448440406], [-82.50965938971122, 27.957303116398652], [-82.5096260623313, 27.957323644140057], [-82.50962200638773, 27.95734962863883]]]}, "properties": {"FACILITYID": "350256", "projid": "SW250002", "projname": "Grady Ave Drainage Improvements ", "projdesc": "Project area is located on the east side of N Grady Avenue south of W Spruce Street as is identified as the Grady Avenue Drainage Improvements. Work involves demolition of trees and guardrail, installation of ten (10) storm sewer structures and large diameter piping to enclose an existing 800-ft ditch corridor. Work includes approximately 200 feet of 36” RCP pipe and approximately 490 feet of 60”x38” ERCP pipe. and all miscellaneous and appurtenant work.", "rationale": "The existing ditch is located directly adjacent to the existing City roadway with guardrail separating traffic from the steep embankment.  Steep embankment slopes and sandy soils have caused heavy erosion, causing continuous maintenance issues for City staff. Improvements will enclose the open ditch with installation of a storm sewer conveyance system.  The rehabilitation work will maintain stormwater flow needs while improving public safety and reducing future maintenance.", "projtype": "Stormwater", "safety": "No", "mandate": "No", "repair": "No", "replace": "No", "expand": "No", "efficient": "No", "fiscalyr": "2025", "fundsource": null, "planstart": 1746057600000, "planend": 1780272000000, "estcost": 1270000, "funded": null, "projphase": "P3: Procurement", "actstart": null, "actend": null, "actcost": null, "status": null, "docpath": null, "CreationDate": 1738758015000, "EditDate": 1743433970000, "MultiYear": "No", "NumVotes": null, "ShowPublic": "Yes", "EBO": null, "JobsCreated": null, "Neighborhood": null, "Council": null, "EBOAttained": null, "ContractNumber": null, "ActivityStatus": null, "ProjectSiteURL": null, "RelatedProject": "No", "MapScale": 6000, "WMBESLBE": null, "ORACLEID": null, "EBUILDERID": null, "COMPROCUREMENT": null, "WATER": null, "WASTEWATER": null, "STORMWATER": null, "TRANSPORTATION": null, "OBJECTID": 9007, "GlobalID": "{B22DA24C-790D-45C4-84C3-4425C244F6F9}", "ProjectNumerical": null, "Shape__Area": 15568.853253213849, "Shape__Length": 1451.2481500782878}}, {"type": "Feature", "id": 9008, "geometry": {"type": "Polygon", "coordinates": [[[-82.4653561605276, 28.04413256989979], [-82.46536308821932, 28.04366754449199], [-82.46490049300328, 28.04366085132126], [-82.46489164510972, 28.04412825563065], [-82.4653561605276, 28.04413256989979]]]}, "properties": {"FACILITYID": "350330", "projid": "SW250003", "projname": "Forest Hills Park  Pump Station", "projdesc": "The project consists of the installation of an automated pump station to replace the existing temporary pump station at the Forest Hills Park along West Bougainvillea Avenue. The new pump station will eliminate the need for maintenance personnel to operate the pump station during wet weather conditions and will provide a more reliable means to control upstream water levels. This station will be controlled remotely through the City’s SCADA system. ", "rationale": "This project aims to enhance stormwater management in the Forest Hills Park area by replacing the City’s existing portable pump with a permanent, automated pump station. The new system will improve flood control by activating automatically during high water levels, reducing the need for manual operation and increasing reliability. It will be powered by the electric grid with backup systems, ensuring continuous protection of public and private properties during storm events.", "projtype": "Stormwater", "safety": "No", "mandate": "No", "repair": "No", "replace": "No", "expand": "No", "efficient": "No", "fiscalyr": "2026", "fundsource": "Stormwater Improvement Fee", "planstart": 1796112477000, "planend": 1830240487000, "estcost": 3400000, "funded": null, "projphase": null, "actstart": null, "actend": null, "actcost": null, "status": null, "docpath": null, "CreationDate": 1749557213000, "EditDate": 1773925028000, "MultiYear": "No", "NumVotes": null, "ShowPublic": "Yes", "EBO": null, "JobsCreated": null, "Neighborhood": null, "Council": null, "EBOAttained": null, "ContractNumber": null, "ActivityStatus": null, "ProjectSiteURL": null, "RelatedProject": "No", "MapScale": 6000, "WMBESLBE": null, "ORACLEID": null, "EBUILDERID": null, "COMPROCUREMENT": null, "WATER": null, "WASTEWATER": null, "STORMWATER": null, "TRANSPORTATION": null, "OBJECTID": 9008, "GlobalID": "{135C24C9-7A25-4697-B8FA-EDD1C5D89ACF}", "ProjectNumerical": null, "Shape__Area": 25350.336600378163, "Shape__Length": 638.126175263855}}]}